{"type":"FeatureCollection","features":[{"type":"Feature","properties":{"kt":64},"geometry":{"type":"Polygon","coordinates":[[[-90.5923,23.2662],[-90.6425,23.2422],[-90.6984,23.2336],[-90.6984,23.5664],[-89.23920391318835,24.82715344057296],[-88.25888642426756,26.897274704665005],[-87.68085901754093,29.639428103671897],[-87.5,32.5],[-86.8309,29.6821],[-86.8217,29.6028],[-86.83,29.5234],[-87.4537,26.6812],[-87.4733,26.6335],[-87.4993,26.5883],[-88.8883,24.5411],[-88.9256,24.5073],[-90.5923,23.2662]]]}},{"type":"Feature","properties":{"kt":50},"geometry":{"type":"Polygon","coordinates":[[[-91.8159,22.5764],[-91.8969,22.5673],[-92.0586,22.8205],[-92.0722,22.8499],[-92.0798,22.884],[-92.0806,22.8984],[-91.8968,23.2327],[-90.6952,23.8991],[-89.50408386014152,24.98966737480548],[-88.53169697752233,26.965478362684458],[-88.0557,29.7077],[-87.55489108476199,32.50689130767084],[-88.0,35.1],[-87.1177,32.5827],[-86.368,29.7909],[-86.3505,29.7052],[-86.3434,29.5893],[-86.3525,29.4881],[-86.7817,26.8043],[-88.484,24.3412],[-88.5367,24.2757],[-88.5977,24.2164],[-88.6662,24.1644],[-90.3775,22.9985],[-90.4331,22.9654],[-90.537,22.9239],[-91.8159,22.5764]]]}},{"type":"Feature","properties":{"kt":34},"geometry":{"type":"Polygon","coordinates":[[[-91.8311,22.2376],[-91.9188,22.2347],[-92.0063,22.2418],[-92.0922,22.2586],[-92.1752,22.2849],[-92.2542,22.3204],[-92.328,22.3645],[-92.3955,22.4165],[-92.4557,22.4757],[-92.5077,22.5413],[-92.5507,22.6122],[-92.584,22.6874],[-92.6072,22.7658],[-92.6199,22.8462],[-92.6223,22.9158],[-92.615,22.9968],[-92.5971,23.0763],[-92.5687,23.1533],[-92.5303,23.2264],[-92.4749,23.3041],[-92.4171,23.3656],[-91.52534059708402,24.067467041787907],[-90.59650289145154,25.362664970915954],[-89.8946415147406,27.258386791519207],[-89.3762,29.9173],[-88.8647,32.6848],[-88.8467,32.7647],[-88.822,32.8433],[-88.0,35.1],[-86.1876,33.9643],[-86.0684,33.8835],[-85.9298,33.773],[-85.8036,33.6527],[-85.67,33.4969],[-85.5744,33.3586],[-85.5088,33.2433],[-85.4531,33.1244],[-85.418,33.0332],[-85.3802,32.9095],[-84.672,30.0782],[-84.6483,29.9581],[-84.632,29.837],[-84.6229,29.7153],[-84.6213,29.5934],[-85.6633,26.7999],[-86.0622,26.0003],[-86.1477,25.8604],[-86.2255,25.7536],[-87.7675,23.8246],[-87.8753,23.7029],[-87.9545,23.6277],[-88.0612,23.5411],[-88.1755,23.4632],[-88.2967,23.3947],[-90.2179,22.5059],[-90.3041,22.4707],[-90.4114,22.4378],[-90.5218,22.4154],[-91.8311,22.2376]]]}}]}