{"type":"FeatureCollection","features":[{"type":"Feature","id":947,"geometry":{"type":"LineString","coordinates":[[-89.98,29.46],[-89.56,29.66],[-89.6,30.15],[-89.33,30.31],[-88.82,30.4]]},"properties":{"objectid":947,"stormname":"Isaias","stormtype":"TS","basin":"AL","advdate":"1000 PM CDT Wed Oct 07 2026","advisnum":"6","fcstprd":120,"stormnum":9,"tcww":"TWR","idp_source":"al092026-006_ww_wwlin","idp_filedate":1791430091000,"idp_ingestdate":1791430166000,"st_length(shape)":1.7885454676216068,"binnumber":"AT4"}},{"type":"Feature","id":948,"geometry":{"type":"LineString","coordinates":[[-85.39,29.93],[-85.22,29.68],[-84.38,29.96],[-84.08,30.1],[-83.99,30.09]]},"properties":{"objectid":948,"stormname":"Isaias","stormtype":"TS","basin":"AL","advdate":"1000 PM CDT Wed Oct 07 2026","advisnum":"6","fcstprd":120,"stormnum":9,"tcww":"TWR","idp_source":"al092026-006_ww_wwlin","idp_filedate":1791430091000,"idp_ingestdate":1791430166000,"st_length(shape)":1.6093748328708832,"binnumber":"AT4"}},{"type":"Feature","id":949,"geometry":{"type":"LineString","coordinates":[[-88.82,30.4],[-88.4,30.4],[-87.55,30.27],[-86.8,30.39],[-86.4,30.38],[-85.98,30.28],[-85.39,29.93]]},"properties":{"objectid":949,"stormname":"Isaias","stormtype":"TS","basin":"AL","advdate":"1000 PM CDT Wed Oct 07 2026","advisnum":"6","fcstprd":120,"stormnum":9,"tcww":"HWR","idp_source":"al092026-006_ww_wwlin","idp_filedate":1791430091000,"idp_ingestdate":1791430166000,"st_length(shape)":3.5572916056100246,"binnumber":"AT4"}}]}