{"type":"FeatureCollection","features":[{"type":"Feature","id":3188,"geometry":{"type":"LineString","coordinates":[[-92.2186,24.4211],[-91.9521,24.1848],[-91.7767,24.0793],[-91.6251,23.9863],[-91.469,23.8863],[-91.3231,23.7857],[-91.1867,23.6805],[-91.0646,23.571],[-90.9592,23.4563],[-90.8724,23.3363],[-90.8047,23.2111],[-90.7556,23.0813],[-90.7232,22.9476],[-90.7055,22.8109],[-90.6989,22.6723],[-90.702,22.5326],[-90.7081,22.3923],[-90.7241,22.2518],[-90.7241,22.1112],[-90.6586,21.7956]]},"properties":{"arrival_time":"Thu 2 am","objectid":3188,"name":"Placemark","folderpath":"Most-Likely Time of Arrival: AL092026_Adv6","symbolid":0,"altmode":-1,"base":0,"clamped":0,"extruded":0,"idp_ingestdate":1791430186000,"idp_filedate":1791430092000,"idp_source":"AL092026_006adv_most_likely_toa_34","idp_subset":"al092026","binnumber":"AT4","snippet":"","popupinfo":"\n                    \u003ctable\u003e\n                        \u003ctr\u003e\u003ctd\u003eThu 2 am\u003c/td\u003e\u003c/tr\u003e\n                    \u003c/table\u003e\n                ","st_length(shape)":3.3212993275748453}},{"type":"Feature","id":3189,"geometry":{"type":"LineString","coordinates":[[-91.6869,24.8312],[-91.6364,24.8525],[-91.4258,24.7471],[-91.2933,24.6862],[-91.1299,24.6082],[-90.9774,24.536],[-90.8205,24.4599],[-90.6672,24.3823],[-90.518,24.3008],[-90.3765,24.215],[-90.2453,24.1238],[-90.1266,24.0271],[-90.0218,23.9246],[-89.9308,23.8162],[-89.8532,23.7021],[-89.7877,23.5823],[-89.7327,23.4572],[-89.6867,23.3273],[-89.648,23.1936],[-89.6157,23.057],[-89.5865,22.9183],[-89.5643,22.7786],[-89.5343,22.6383],[-89.5312,22.4978],[-89.4611,22.3572],[-89.4392,22.2846]]},"properties":{"arrival_time":"Thu 8 am","objectid":3189,"name":"Placemark","folderpath":"Most-Likely Time of Arrival: AL092026_Adv6","symbolid":0,"altmode":-1,"base":0,"clamped":0,"extruded":0,"idp_ingestdate":1791430186000,"idp_filedate":1791430092000,"idp_source":"AL092026_006adv_most_likely_toa_34","idp_subset":"al092026","binnumber":"AT4","snippet":"","popupinfo":"\n                    \u003ctable\u003e\n                        \u003ctr\u003e\u003ctd\u003eThu 8 am\u003c/td\u003e\u003c/tr\u003e\n                    \u003c/table\u003e\n                ","st_length(shape)":3.6973141463457035}},{"type":"Feature","id":3190,"geometry":{"type":"LineString","coordinates":[[-91.2543,25.3068],[-91.2153,25.3094],[-91.075,25.2743],[-90.8877,25.2557],[-90.7195,25.2295],[-90.5453,25.2036],[-90.3752,25.173],[-90.2055,25.1369],[-90.0378,25.0931],[-89.8728,25.04],[-89.7122,24.9767],[-89.558,24.9033],[-89.4127,24.8205],[-89.2783,24.7296],[-89.1562,24.6322],[-89.047,24.5296],[-88.9503,24.4225],[-88.8653,24.3111],[-88.7905,24.1952],[-88.7246,24.0747],[-88.6661,23.9493],[-88.6138,23.8195],[-88.5663,23.6863],[-88.5228,23.5501],[-88.4809,23.4133],[-88.443,23.2735],[-88.3996,23.1401],[-88.3734,22.9898],[-88.3706,22.8699]]},"properties":{"arrival_time":"Thu 2 pm","objectid":3190,"name":"Placemark","folderpath":"Most-Likely Time of Arrival: AL092026_Adv6","symbolid":0,"altmode":-1,"base":0,"clamped":0,"extruded":0,"idp_ingestdate":1791430186000,"idp_filedate":1791430092000,"idp_source":"AL092026_006adv_most_likely_toa_34","idp_subset":"al092026","binnumber":"AT4","snippet":"","popupinfo":"\n                    \u003ctable\u003e\n                        \u003ctr\u003e\u003ctd\u003eThu 2 pm\u003c/td\u003e\u003c/tr\u003e\n                    \u003c/table\u003e\n                ","st_length(shape)":4.2133665602722816}},{"type":"Feature","id":3191,"geometry":{"type":"LineString","coordinates":[[-90.9703,25.8634],[-90.8645,25.8717],[-90.7797,25.8951],[-90.5973,25.9094],[-90.4604,25.9249],[-90.3075,25.9377],[-90.1617,25.9478],[-90.0133,25.9531],[-89.8636,25.9523],[-89.7104,25.944],[-89.5533,25.9268],[-89.3922,25.8994],[-89.2276,25.8609],[-89.0606,25.8108],[-88.8922,25.749],[-88.7236,25.6762],[-88.5566,25.5936],[-88.3926,25.5028],[-88.2337,25.4055],[-88.0819,25.3031],[-87.939,25.1965],[-87.8065,25.0863],[-87.6851,24.9727],[-87.575,24.8559],[-87.4753,24.7363],[-87.3846,24.6148],[-87.3011,24.4925],[-87.2198,24.3689],[-87.1468,24.2475],[-87.0755,24.1299],[-87.0051,24.009],[-86.9349,23.9036],[-86.9521,23.8637]]},"properties":{"arrival_time":"Thu 8 pm","objectid":3191,"name":"Placemark","folderpath":"Most-Likely Time of Arrival: AL092026_Adv6","symbolid":0,"altmode":-1,"base":0,"clamped":0,"extruded":0,"idp_ingestdate":1791430186000,"idp_filedate":1791430092000,"idp_source":"AL092026_006adv_most_likely_toa_34","idp_subset":"al092026","binnumber":"AT4","snippet":"","popupinfo":"\n                    \u003ctable\u003e\n                        \u003ctr\u003e\u003ctd\u003eThu 8 pm\u003c/td\u003e\u003c/tr\u003e\n                    \u003c/table\u003e\n                ","st_length(shape)":4.9070829537831617}},{"type":"Feature","id":3192,"geometry":{"type":"LineString","coordinates":[[-90.7484,27.9137],[-90.654,27.9403],[-90.5136,27.9616],[-90.3733,27.9897],[-90.2329,28.0195],[-90.0926,28.0519],[-89.9522,28.0848],[-89.8119,28.1171],[-89.6716,28.1475],[-89.5311,28.1706],[-89.3901,28.1932],[-89.248,28.2116],[-89.1042,28.2254],[-88.9578,28.2343],[-88.8082,28.238],[-88.6552,28.2364],[-88.4994,28.2294],[-88.3417,28.2169],[-88.1832,28.1991],[-88.0246,28.176],[-87.8656,28.1478],[-87.7053,28.1145],[-87.5423,28.0761],[-87.3752,28.0329],[-87.2033,27.985],[-87.027,27.9321],[-86.8477,27.8742],[-86.6674,27.8111],[-86.488,27.742],[-86.3112,27.6667],[-86.1386,27.5849],[-85.9717,27.4969],[-85.8114,27.4033],[-85.6502,27.3085],[-85.5054,27.2059],[-85.3693,27.1015],[-85.2407,26.9964],[-85.1166,26.891],[-84.9963,26.7855],[-84.873,26.6801],[-84.7596,26.5746],[-84.7712,26.5156]]},"properties":{"arrival_time":"Fri 8 am","objectid":3192,"name":"Placemark","folderpath":"Most-Likely Time of Arrival: AL092026_Adv6","symbolid":0,"altmode":-1,"base":0,"clamped":0,"extruded":0,"idp_ingestdate":1791430186000,"idp_filedate":1791430092000,"idp_source":"AL092026_006adv_most_likely_toa_34","idp_subset":"al092026","binnumber":"AT4","snippet":"","popupinfo":"\n                    \u003ctable\u003e\n                        \u003ctr\u003e\u003ctd\u003eFri 8 am\u003c/td\u003e\u003c/tr\u003e\n                    \u003c/table\u003e\n                ","st_length(shape)":6.5176405687211112}},{"type":"Feature","id":3193,"geometry":{"type":"LineString","coordinates":[[-90.5089,30.3645],[-90.4084,30.4055],[-90.2773,30.453],[-90.1299,30.4848],[-89.9896,30.5258],[-89.8476,30.5674],[-89.7069,30.6127],[-89.5663,30.6594],[-89.426,30.7069],[-89.2853,30.7527],[-89.1441,30.7973],[-89.0019,30.8395],[-88.8575,30.8781],[-88.7098,30.9121],[-88.5573,30.9409],[-88.3989,30.9641],[-88.2337,30.9813],[-88.062,30.993],[-87.8847,30.9997],[-87.7036,31.002],[-87.5208,31.0005],[-87.3382,30.9956],[-87.1571,30.9871],[-86.9779,30.975],[-86.8004,30.9591],[-86.6239,30.9394],[-86.4478,30.9164],[-86.2716,30.8909],[-86.0958,30.8641],[-85.9208,30.8372],[-85.7474,30.8111],[-85.5764,30.7866],[-85.4083,30.7643],[-85.2401,30.7418],[-85.0782,30.7238],[-84.9176,30.7069],[-84.7565,30.6923],[-84.5954,30.6813],[-84.4307,30.6706],[-84.2696,30.6698],[-84.093,30.6515],[-84.0305,30.58]]},"properties":{"arrival_time":"Fri 8 pm","objectid":3193,"name":"Placemark","folderpath":"Most-Likely Time of Arrival: AL092026_Adv6","symbolid":0,"altmode":-1,"base":0,"clamped":0,"extruded":0,"idp_ingestdate":1791430186000,"idp_filedate":1791430092000,"idp_source":"AL092026_006adv_most_likely_toa_34","idp_subset":"al092026","binnumber":"AT4","snippet":"","popupinfo":"\n                    \u003ctable\u003e\n                        \u003ctr\u003e\u003ctd\u003eFri 8 pm\u003c/td\u003e\u003c/tr\u003e\n                    \u003c/table\u003e\n                ","st_length(shape)":6.6208754591964398}},{"type":"Feature","id":3194,"geometry":{"type":"LineString","coordinates":[[-88.2448,22.9413],[-88.2176,22.9568],[-88.1903,22.9724],[-88.163,22.988],[-88.1357,23.0038],[-88.1084,23.0196],[-88.0811,23.0356],[-88.0537,23.0516],[-88.0263,23.0678],[-87.9989,23.0842],[-87.9715,23.1007],[-87.9441,23.1173],[-87.9167,23.1341],[-87.8893,23.151],[-87.8619,23.168],[-87.8345,23.1852],[-87.8073,23.2025],[-87.7799,23.2199],[-87.7527,23.2375],[-87.7256,23.2552],[-87.6986,23.2729],[-87.6716,23.2908],[-87.6447,23.3089],[-87.6179,23.327],[-87.5912,23.3452],[-87.5646,23.3636],[-87.5382,23.3821],[-87.5119,23.4008],[-87.4857,23.4196],[-87.4597,23.4385],[-87.4339,23.4576],[-87.4081,23.4768],[-87.3826,23.4962],[-87.3572,23.5158],[-87.332,23.5356],[-87.307,23.5555],[-87.2821,23.5756],[-87.2574,23.5959],[-87.2329,23.6163],[-87.2085,23.6369],[-87.1843,23.6576],[-87.1602,23.6784],[-87.1361,23.6993],[-87.1122,23.7204],[-87.0883,23.7415],[-87.0646,23.7626],[-87.0408,23.7838],[-87.0171,23.8051],[-86.9934,23.8264],[-86.9698,23.8477],[-86.9461,23.869],[-86.9225,23.8903],[-86.8989,23.9117],[-86.8754,23.9331],[-86.8519,23.9545],[-86.8284,23.9761],[-86.8051,23.9977],[-86.7818,24.0194],[-86.7587,24.0412],[-86.7357,24.0631],[-86.7128,24.0852],[-86.6901,24.1074],[-86.6675,24.1298],[-86.6451,24.1524],[-86.6228,24.1751],[-86.6008,24.1979],[-86.5788,24.2209],[-86.557,24.2441],[-86.5352,24.2673],[-86.5135,24.2906],[-86.492,24.314],[-86.4705,24.3374],[-86.4489,24.3608],[-86.4274,24.3843],[-86.4059,24.4077],[-86.3843,24.431],[-86.3627,24.4544],[-86.341,24.4776],[-86.3192,24.5008],[-86.2974,24.524],[-86.2755,24.547],[-86.2536,24.5701],[-86.2316,24.593],[-86.2096,24.6159],[-86.1874,24.6388],[-86.1654,24.6617],[-86.1432,24.6845],[-86.1212,24.7074],[-86.0991,24.7303],[-86.0771,24.7532],[-86.0551,24.7761],[-86.0331,24.7992],[-86.0113,24.8223],[-85.9895,24.8454],[-85.9678,24.8687],[-85.9462,24.8921],[-85.9247,24.9155],[-85.9032,24.939],[-85.8819,24.9627],[-85.8607,24.9864],[-85.8395,25.0102],[-85.8185,25.034],[-85.7974,25.058],[-85.7765,25.082],[-85.7556,25.1061],[-85.7347,25.1302],[-85.714,25.1544],[-85.6932,25.1786],[-85.6726,25.2029],[-85.652,25.2273],[-85.6314,25.2517],[-85.6109,25.2761],[-85.5905,25.3006],[-85.5702,25.3252],[-85.5499,25.3499],[-85.5296,25.3746],[-85.5095,25.3994],[-85.4894,25.4243],[-85.4695,25.4493],[-85.4496,25.4744],[-85.4297,25.4995],[-85.41,25.5248],[-85.3905,25.5501],[-85.371,25.5756],[-85.3516,25.6012],[-85.3323,25.6268],[-85.3131,25.6526],[-85.294,25.6785],[-85.2751,25.7045],[-85.2562,25.7306],[-85.2375,25.7568],[-85.2189,25.7831],[-85.2003,25.8096],[-85.182,25.8362],[-85.1637,25.8629],[-85.1456,25.8897],[-85.1276,25.9167],[-85.1097,25.9438],[-85.092,25.971],[-85.0744,25.9984],[-85.057,26.0258],[-85.0396,26.0534],[-85.0224,26.0812],[-85.0053,26.109],[-84.9883,26.137],[-84.9715,26.1651],[-84.9547,26.1933],[-84.9381,26.2216],[-84.9215,26.2501],[-84.9051,26.2785],[-84.8887,26.3071],[-84.8723,26.3357],[-84.8561,26.3644],[-84.8398,26.3931],[-84.8236,26.4219],[-84.8075,26.4507],[-84.7914,26.4795],[-84.7752,26.5084],[-84.7592,26.5372],[-84.743,26.5661],[-84.727,26.595],[-84.7109,26.6239],[-84.6948,26.6528],[-84.6788,26.6817],[-84.6628,26.7106],[-84.6468,26.7396],[-84.6307,26.7685],[-84.6147,26.7975],[-84.5988,26.8265],[-84.5829,26.8555],[-84.5669,26.8845],[-84.5511,26.9136],[-84.5352,26.9427],[-84.5194,26.9718],[-84.5037,27.0011],[-84.4879,27.0303],[-84.4723,27.0596],[-84.4567,27.089],[-84.4412,27.1184],[-84.4258,27.1479],[-84.4103,27.1775],[-84.395,27.2071],[-84.3797,27.2368],[-84.3644,27.2665],[-84.3492,27.2962],[-84.3341,27.326],[-84.319,27.3559],[-84.3039,27.3857],[-84.2888,27.4156],[-84.2738,27.4455],[-84.2587,27.4755],[-84.2438,27.5054],[-84.2287,27.5353],[-84.2137,27.5653],[-84.1988,27.5953],[-84.1838,27.6253],[-84.1688,27.6553],[-84.1539,27.6853],[-84.139,27.7153],[-84.1241,27.7454],[-84.1093,27.7755],[-84.0944,27.8056],[-84.0796,27.8358],[-84.0649,27.866],[-84.0502,27.8963],[-84.0356,27.9267],[-84.0211,27.9571],[-84.0067,27.9876],[-83.9924,28.0183],[-83.9781,28.049],[-83.964,28.0799],[-83.9501,28.1108],[-83.9362,28.142],[-83.9225,28.1732],[-83.909,28.2046],[-83.8956,28.2362],[-83.8824,28.2679],[-83.8693,28.2998],[-83.8563,28.3318],[-83.8436,28.364],[-83.831,28.3963],[-83.8185,28.4289],[-83.8063,28.4615],[-83.7941,28.4944],[-83.7822,28.5273],[-83.7704,28.5605],[-83.7588,28.5938],[-83.7473,28.6274],[-83.7361,28.6611],[-83.725,28.695],[-83.7142,28.7291],[-83.7037,28.7634],[-83.6935,28.798],[-83.6835,28.8329],[-83.6738,28.8681],[-83.6646,28.9036],[-83.6558,28.9394],[-83.6475,28.9755],[-83.6397,29.012],[-83.6324,29.0489],[-83.6257,29.0861],[-83.6198,29.1236],[-83.6144,29.1615],[-83.6099,29.1997],[-83.6061,29.2381],[-83.6031,29.2768],[-83.6009,29.3157],[-83.5995,29.3547],[-83.5991,29.3937],[-83.5995,29.4327],[-83.6007,29.4717],[-83.6029,29.5106],[-83.6058,29.5492],[-83.6096,29.5876],[-83.6143,29.6257],[-83.6197,29.6634],[-83.6259,29.7007],[-83.6329,29.7376],[-83.6407,29.7739],[-83.6491,29.8098],[-83.6583,29.8451],[-83.6682,29.8798],[-83.6788,29.9139],[-83.69,29.9475],[-83.7019,29.9804],[-83.7144,30.0127],[-83.7276,30.0445],[-83.7413,30.0757],[-83.7557,30.1063],[-83.7706,30.1363],[-83.786,30.1659],[-83.8018,30.1949],[-83.8181,30.2236],[-83.8348,30.2519],[-83.8518,30.2798],[-83.869,30.3076],[-83.8864,30.3351],[-83.9039,30.3626],[-83.9214,30.3901],[-83.9387,30.4177],[-83.9559,30.4455],[-83.9728,30.4736],[-83.9893,30.502],[-84.0052,30.531],[-84.0208,30.5604],[-84.0356,30.5905],[-84.0499,30.6212],[-84.0634,30.6527],[-84.0761,30.6849],[-84.0881,30.7179],[-84.0992,30.7516],[-84.1097,30.7862],[-84.1194,30.8215],[-84.1283,30.8575],[-84.1365,30.8943],[-84.144,30.9317],[-84.1509,30.9698],[-84.1572,31.0084],[-84.163,31.0476],[-84.1684,31.0872],[-84.1733,31.1272],[-84.1779,31.1676],[-84.1822,31.2082],[-84.1862,31.2491],[-84.1902,31.2902],[-84.1939,31.3313],[-84.1977,31.3725],[-84.2014,31.4137],[-84.2052,31.4549],[-84.2092,31.4959],[-84.2133,31.5368],[-84.2176,31.5774],[-84.2222,31.6178],[-84.2271,31.6579],[-84.2323,31.6976],[-84.2379,31.737],[-84.2438,31.776],[-84.2501,31.8146],[-84.2568,31.8529],[-84.2639,31.8907],[-84.2715,31.9281],[-84.2794,31.9651],[-84.2877,32.0018],[-84.2964,32.0381],[-84.3054,32.074],[-84.3147,32.1096],[-84.3244,32.145],[-84.3343,32.18],[-84.3444,32.2148],[-84.3548,32.2494],[-84.3654,32.2838],[-84.3761,32.3181],[-84.3869,32.3522],[-84.3979,32.3862],[-84.4089,32.4201],[-84.42,32.454],[-84.4311,32.4878],[-84.4422,32.5216],[-84.4534,32.5554],[-84.4645,32.5893],[-84.4755,32.6232],[-84.4865,32.6571],[-84.4976,32.6911],[-84.5085,32.7251],[-84.5193,32.7592],[-84.5302,32.7934],[-84.5409,32.8275],[-84.5517,32.8617],[-84.5624,32.8959],[-84.5732,32.9301],[-84.584,32.9643],[-84.5949,32.9984],[-84.6058,33.0324],[-84.6169,33.0663],[-84.6281,33.1],[-84.6395,33.1336],[-84.6511,33.1669],[-84.6629,33.2001],[-84.675,33.2329],[-84.6874,33.2655],[-84.7001,33.2977],[-84.7132,33.3296],[-84.7266,33.3611],[-84.7404,33.3923],[-84.7545,33.4231],[-84.7691,33.4535],[-84.7841,33.4835],[-84.7994,33.5131],[-84.8152,33.5423],[-84.8314,33.5711],[-84.8479,33.5995],[-84.8649,33.6275],[-84.8823,33.6551],[-84.9,33.6823],[-84.9181,33.7091],[-84.9366,33.7356],[-84.9555,33.7617],[-84.9748,33.7874],[-84.9944,33.8127],[-85.0144,33.8376],[-85.0348,33.8622],[-85.0556,33.8863],[-85.0768,33.9101],[-85.0984,33.9335],[-85.1204,33.9564],[-85.1428,33.979],[-85.1656,34.0011],[-85.1888,34.0229],[-85.2124,34.0442],[-85.2365,34.0651],[-85.261,34.0856],[-85.2859,34.1056],[-85.3112,34.1253],[-85.3369,34.1445],[-85.3631,34.1633],[-85.3896,34.1817],[-85.4166,34.1997],[-85.4439,34.2173],[-85.4716,34.2345],[-85.4997,34.2514],[-85.5282,34.2679],[-85.5569,34.2841],[-85.586,34.3],[-85.6154,34.3156],[-85.6451,34.3308],[-85.675,34.3459],[-85.7052,34.3606],[-85.7356,34.3752],[-85.7662,34.3895],[-85.797,34.4037],[-85.828,34.4177],[-85.8591,34.4315],[-85.8903,34.4452],[-85.9217,34.4588],[-85.9532,34.4723],[-85.9847,34.4857],[-86.0163,34.4991],[-86.048,34.5124],[-86.0797,34.5256],[-86.1115,34.5387],[-86.1433,34.5518],[-86.1752,34.5649],[-86.2072,34.5779],[-86.2392,34.5909],[-86.2713,34.6038],[-86.3034,34.6166],[-86.3355,34.6294],[-86.3678,34.6421],[-86.4001,34.6548],[-86.4325,34.6673],[-86.465,34.6798],[-86.4976,34.6922],[-86.5303,34.7044],[-86.5631,34.7166],[-86.596,34.7286],[-86.6291,34.7405],[-86.6623,34.7522],[-86.6957,34.7638],[-86.7293,34.7751],[-86.7631,34.7863],[-86.7971,34.7973],[-86.8313,34.808],[-86.8658,34.8184],[-86.9005,34.8286],[-86.9355,34.8385],[-86.9709,34.848],[-87.0065,34.8572],[-87.0424,34.8661],[-87.0787,34.8745],[-87.1153,34.8826],[-87.1522,34.8902],[-87.1895,34.8974],[-87.227,34.904],[-87.2649,34.9102],[-87.303,34.9158],[-87.3414,34.9208],[-87.3801,34.9252],[-87.4189,34.929],[-87.458,34.9321],[-87.4972,34.9346],[-87.5365,34.9364],[-87.576,34.9375],[-87.6154,34.9379],[-87.6549,34.9375],[-87.6944,34.9365],[-87.7337,34.9348],[-87.773,34.9324],[-87.8122,34.9294],[-87.8512,34.9257],[-87.89,34.9215],[-87.9286,34.9167],[-87.9671,34.9114],[-88.0052,34.9056],[-88.0432,34.8993],[-88.0809,34.8926],[-88.1184,34.8856],[-88.1557,34.8782],[-88.1927,34.8705],[-88.2295,34.8625],[-88.2661,34.8543],[-88.3026,34.8459],[-88.3388,34.8372],[-88.3749,34.8284],[-88.4109,34.8194],[-88.4467,34.8103],[-88.4823,34.801],[-88.5179,34.7916],[-88.5534,34.7821],[-88.5887,34.7725],[-88.624,34.7628],[-88.6591,34.753],[-88.6941,34.743],[-88.7289,34.7329],[-88.7637,34.7227],[-88.7982,34.7123],[-88.8326,34.7017],[-88.8668,34.6909],[-88.9007,34.6798],[-88.9343,34.6685],[-88.9677,34.657],[-89.0008,34.6451],[-89.0335,34.6329],[-89.0659,34.6203],[-89.098,34.6074],[-89.1297,34.5942],[-89.161,34.5806],[-89.192,34.5665],[-89.2225,34.5521],[-89.2527,34.5373],[-89.2824,34.5221],[-89.3117,34.5064],[-89.3406,34.4904],[-89.3691,34.474],[-89.3973,34.4571],[-89.425,34.4399],[-89.4523,34.4223],[-89.4793,34.4043],[-89.5058,34.3858],[-89.5319,34.367],[-89.5577,34.3478],[-89.5831,34.3282],[-89.608,34.3082],[-89.6325,34.2878],[-89.6566,34.267],[-89.6804,34.2458],[-89.7037,34.2241],[-89.7266,34.2021],[-89.7491,34.1796],[-89.7711,34.1567],[-89.7927,34.1333],[-89.8139,34.1095],[-89.8346,34.0853],[-89.8549,34.0606],[-89.8746,34.0354],[-89.8939,34.0098],[-89.9128,33.9836],[-89.9311,33.957],[-89.949,33.9299],[-89.9663,33.9023],[-89.9832,33.8742],[-89.9995,33.8455],[-90.0153,33.8164],[-90.0305,33.7867],[-90.0452,33.7564],[-90.0594,33.7256],[-90.073,33.6942],[-90.086,33.6623],[-90.0985,33.6299],[-90.1104,33.5969],[-90.1219,33.5633],[-90.1328,33.5293],[-90.1431,33.4947],[-90.153,33.4596],[-90.1624,33.424],[-90.1713,33.388],[-90.1798,33.3516],[-90.1879,33.3147],[-90.1957,33.2775],[-90.2031,33.24],[-90.2102,33.2021],[-90.2171,33.164],[-90.2237,33.1257],[-90.2301,33.0872],[-90.2365,33.0485],[-90.2426,33.0097],[-90.2487,32.9709],[-90.2548,32.932],[-90.2608,32.893],[-90.2668,32.8541],[-90.2729,32.8153],[-90.2791,32.7765],[-90.2853,32.7377],[-90.2917,32.6991],[-90.2981,32.6606],[-90.3047,32.6222],[-90.3114,32.584],[-90.3182,32.5459],[-90.3252,32.5079],[-90.3323,32.47],[-90.3395,32.4323],[-90.3469,32.3948],[-90.3544,32.3573],[-90.362,32.3199],[-90.3696,32.2826],[-90.3773,32.2454],[-90.3851,32.2082],[-90.3929,32.171],[-90.4007,32.1339],[-90.4084,32.0967],[-90.4161,32.0594],[-90.4238,32.0221],[-90.4313,31.9846],[-90.4387,31.9471],[-90.446,31.9094],[-90.453,31.8715],[-90.4599,31.8334],[-90.4665,31.7951],[-90.4729,31.7565],[-90.4791,31.7177],[-90.4849,31.6786],[-90.4904,31.6392],[-90.4957,31.5995],[-90.5006,31.5594],[-90.5051,31.5191],[-90.5093,31.4784],[-90.5131,31.4373],[-90.5165,31.3959],[-90.5196,31.3543],[-90.5222,31.3123],[-90.5245,31.27],[-90.5265,31.2275],[-90.528,31.1847],[-90.5292,31.1418],[-90.53,31.0987],[-90.5305,31.0555],[-90.5306,31.0123],[-90.5305,30.969],[-90.5301,30.9257],[-90.5294,30.8824],[-90.5284,30.8392],[-90.5271,30.7961],[-90.5257,30.753],[-90.524,30.7101],[-90.5222,30.6672],[-90.5203,30.6244],[-90.5183,30.5817],[-90.5164,30.539],[-90.5144,30.4964],[-90.5125,30.4538],[-90.5107,30.4113],[-90.5091,30.3687],[-90.5077,30.3263],[-90.5065,30.2838],[-90.5058,30.2414],[-90.5054,30.1992],[-90.5055,30.157],[-90.506,30.1151],[-90.5071,30.0733],[-90.5089,30.0319],[-90.5112,29.9908],[-90.5143,29.9502],[-90.5179,29.91],[-90.5224,29.8703],[-90.5276,29.8312],[-90.5335,29.7927],[-90.5402,29.7548],[-90.5476,29.7176],[-90.5558,29.681],[-90.5647,29.6451],[-90.5741,29.6097],[-90.5842,29.5749],[-90.5948,29.5406],[-90.6058,29.5067],[-90.6172,29.4732],[-90.6289,29.4399],[-90.6407,29.4068],[-90.6526,29.3737],[-90.6645,29.3407],[-90.6763,29.3075],[-90.6878,29.2741],[-90.699,29.2404],[-90.7098,29.2063],[-90.7201,29.1718],[-90.7298,29.1367],[-90.739,29.1011],[-90.7474,29.0649],[-90.7551,29.028],[-90.7621,28.9906],[-90.7683,28.9525],[-90.7737,28.9139],[-90.7784,28.8747],[-90.7823,28.8349],[-90.7855,28.7947],[-90.788,28.7542],[-90.7897,28.7132],[-90.7908,28.672],[-90.7913,28.6306],[-90.7912,28.589],[-90.7906,28.5473],[-90.7896,28.5056],[-90.788,28.4638],[-90.7861,28.422],[-90.7838,28.3803],[-90.7813,28.3386],[-90.7785,28.297],[-90.7755,28.2555],[-90.7723,28.214],[-90.769,28.1726],[-90.7657,28.1311],[-90.7623,28.0898],[-90.7589,28.0484],[-90.7555,28.007],[-90.7522,27.9655],[-90.7491,27.9241],[-90.7461,27.8825],[-90.7433,27.8409],[-90.7407,27.7992],[-90.7384,27.7574],[-90.7364,27.7155],[-90.7347,27.6736],[-90.7333,27.6315],[-90.7323,27.5895],[-90.7317,27.5473],[-90.7315,27.5052],[-90.7316,27.4631],[-90.7322,27.4209],[-90.7331,27.3788],[-90.7344,27.3368],[-90.7361,27.2948],[-90.738,27.2529],[-90.7403,27.211],[-90.7429,27.1693],[-90.7457,27.1277],[-90.7488,27.0862],[-90.7521,27.0449],[-90.7556,27.0037],[-90.7593,26.9626],[-90.7633,26.9217],[-90.7674,26.8809],[-90.7717,26.8404],[-90.7762,26.8],[-90.781,26.7597],[-90.7859,26.7197],[-90.791,26.6799],[-90.7964,26.6403],[-90.802,26.6009],[-90.8078,26.5618],[-90.8138,26.5229],[-90.8201,26.4842],[-90.8267,26.4458],[-90.8335,26.4076],[-90.8405,26.3697],[-90.8478,26.3321],[-90.8554,26.2947],[-90.8632,26.2576],[-90.8713,26.2207],[-90.8797,26.1841],[-90.8883,26.1478],[-90.8972,26.1118],[-90.9065,26.0761],[-90.916,26.0406],[-90.9259,26.0055],[-90.936,25.9707],[-90.9465,25.9363],[-90.9574,25.9022],[-90.9686,25.8684],[-90.9802,25.8351],[-90.9921,25.8021],[-91.0045,25.7695],[-91.0173,25.7373],[-91.0305,25.7055],[-91.0441,25.6741],[-91.058,25.6432],[-91.0725,25.6127],[-91.0873,25.5826],[-91.1026,25.5529],[-91.1183,25.5236],[-91.1344,25.4948],[-91.1508,25.4663],[-91.1677,25.4382],[-91.1849,25.4104],[-91.2025,25.383],[-91.2204,25.356],[-91.2386,25.3292],[-91.2571,25.3028],[-91.276,25.2767],[-91.2951,25.2509],[-91.3145,25.2253],[-91.3342,25.2001],[-91.3542,25.1751],[-91.3744,25.1504],[-91.395,25.1259],[-91.4157,25.1018],[-91.4368,25.0779],[-91.4582,25.0543],[-91.4798,25.031],[-91.5017,25.0079],[-91.5238,24.9851],[-91.5463,24.9626],[-91.569,24.9403],[-91.5919,24.9182],[-91.615,24.8964],[-91.6383,24.8748],[-91.6619,24.8534],[-91.6857,24.8322],[-91.7096,24.8112],[-91.7337,24.7904],[-91.758,24.7697],[-91.7824,24.7492],[-91.8071,24.7289],[-91.8318,24.7087],[-91.8568,24.6886],[-91.8818,24.6687],[-91.907,24.649],[-91.9324,24.6294],[-91.9579,24.6099],[-91.9835,24.5906],[-92.0092,24.5714],[-92.0351,24.5523],[-92.0611,24.5333],[-92.0872,24.5144],[-92.1133,24.4956],[-92.1396,24.4769],[-92.1659,24.4583],[-92.1923,24.4397],[-92.2186,24.4211],[-92.245,24.4025],[-92.2714,24.384],[-92.2978,24.3654],[-92.3242,24.3468],[-92.3505,24.3282],[-92.3767,24.3095],[-92.403,24.2907],[-92.4291,24.2719],[-92.4551,24.253],[-92.4811,24.234],[-92.507,24.2149],[-92.5328,24.1958],[-92.5585,24.1765],[-92.584,24.1571],[-92.6095,24.1376],[-92.6348,24.118],[-92.66,24.0982],[-92.685,24.0782],[-92.7098,24.0582],[-92.7345,24.0379],[-92.7591,24.0175],[-92.7834,23.9968],[-92.8075,23.976],[-92.8314,23.955],[-92.8551,23.9337],[-92.8785,23.9122],[-92.9018,23.8905],[-92.9247,23.8685],[-92.9475,23.8462],[-92.9699,23.8237],[-92.992,23.8009],[-93.0139,23.7778],[-93.0355,23.7544],[-93.0567,23.7307],[-93.0776,23.7066],[-93.0981,23.6822],[-93.1183,23.6574],[-93.1381,23.6323],[-93.1576,23.6067],[-93.1765,23.5808],[-93.195,23.5543],[-93.2131,23.5274],[-93.2307,23.5],[-93.2477,23.4721],[-93.2642,23.4436],[-93.2801,23.4146],[-93.2953,23.3849],[-93.31,23.3546],[-93.324,23.3237],[-93.3372,23.2921],[-93.3498,23.2597],[-93.3615,23.2267],[-93.3725,23.1929],[-93.3827,23.1584],[-93.392,23.1231],[-93.4005,23.0872],[-93.4081,23.0506],[-93.4148,23.0134],[-93.4206,22.9756],[-93.4255,22.9372],[-93.4295,22.8985],[-93.4326,22.8593],[-93.4347,22.8199],[-93.4359,22.7804],[-93.4362,22.7408],[-93.4354,22.7012],[-93.4337,22.6619],[-93.4311,22.6228],[-93.4274,22.5841],[-93.4227,22.5458],[-93.417,22.5082],[-93.4103,22.4712],[-93.4025,22.435],[-93.3937,22.3995],[-93.3839,22.3649],[-93.373,22.3312],[-93.3612,22.2984],[-93.3484,22.2664],[-93.3346,22.2354],[-93.3198,22.2053],[-93.3041,22.1761],[-93.2876,22.1477],[-93.2702,22.1202],[-93.252,22.0935],[-93.2329,22.0676],[-93.2131,22.0424],[-93.1927,22.0179],[-93.1715,21.9941],[-93.1497,21.971],[-93.1271,21.9486],[-93.1041,21.9267],[-93.0804,21.9055],[-93.056,21.8848],[-93.0311,21.8647],[-93.0057,21.8453],[-92.9796,21.8263],[-92.953,21.808],[-92.9258,21.7903],[-92.898,21.7731],[-92.8697,21.7565],[-92.8407,21.7405],[-92.8112,21.7251],[-92.7809,21.7103],[-92.7502,21.6961],[-92.7188,21.6825],[-92.6869,21.6696],[-92.6543,21.6572],[-92.6211,21.6455],[-92.5873,21.6344],[-92.5529,21.6239],[-92.5179,21.6141],[-92.4823,21.6048],[-92.4462,21.5963],[-92.4095,21.5884],[-92.3722,21.5811],[-92.3344,21.5745],[-92.296,21.5686],[-92.2573,21.5634],[-92.2181,21.5588],[-92.1785,21.555],[-92.1385,21.5518],[-92.0983,21.5493],[-92.0579,21.5475],[-92.0172,21.5464],[-91.9765,21.546],[-91.9357,21.5462],[-91.8948,21.5471],[-91.854,21.5485],[-91.8134,21.5506],[-91.7728,21.5532],[-91.7324,21.5564],[-91.6922,21.5601],[-91.6523,21.5643],[-91.6126,21.5689],[-91.5732,21.5739],[-91.534,21.5794],[-91.4951,21.5852],[-91.4566,21.5914],[-91.4182,21.5979],[-91.3802,21.6048],[-91.3425,21.6119],[-91.305,21.6194],[-91.2678,21.6271],[-91.2308,21.6351],[-91.1941,21.6433],[-91.1577,21.6518],[-91.1214,21.6605],[-91.0854,21.6695],[-91.0497,21.6787],[-91.0142,21.6881],[-90.9789,21.6978],[-90.9437,21.7076],[-90.9088,21.7176],[-90.874,21.7278],[-90.8394,21.7382],[-90.805,21.7487],[-90.7708,21.7594],[-90.7366,21.7702],[-90.7026,21.7812],[-90.6687,21.7922],[-90.6349,21.8034],[-90.6012,21.8147],[-90.5676,21.8261],[-90.5341,21.8375],[-90.5008,21.8491],[-90.4674,21.8607],[-90.4342,21.8724],[-90.401,21.8842],[-90.3679,21.896],[-90.3348,21.9079],[-90.3019,21.9199],[-90.2689,21.932],[-90.2361,21.9441],[-90.2033,21.9562],[-90.1706,21.9685],[-90.138,21.9808],[-90.1053,21.9932],[-90.0729,22.0056],[-90.0404,22.0181],[-90.0081,22.0307],[-89.9758,22.0434],[-89.9437,22.0562],[-89.9116,22.0691],[-89.8797,22.0822],[-89.8478,22.0953],[-89.8162,22.1086],[-89.7847,22.122],[-89.7533,22.1356],[-89.722,22.1493],[-89.691,22.1632],[-89.6601,22.1773],[-89.6294,22.1915],[-89.5988,22.2059],[-89.5684,22.2204],[-89.5381,22.2351],[-89.5079,22.2499],[-89.478,22.2649],[-89.4481,22.28],[-89.4184,22.2953],[-89.3888,22.3106],[-89.3593,22.326],[-89.3299,22.3416],[-89.3005,22.3571],[-89.2712,22.3728],[-89.2419,22.3885],[-89.2126,22.4042],[-89.1834,22.4199],[-89.1542,22.4356],[-89.1249,22.4513],[-89.0957,22.4671],[-89.0665,22.4828],[-89.0373,22.4985],[-89.008,22.5142],[-88.9789,22.53],[-88.9496,22.5457],[-88.9205,22.5615],[-88.8913,22.5773],[-88.8623,22.5931],[-88.8333,22.6089],[-88.8043,22.6248],[-88.7754,22.6408],[-88.7466,22.6567],[-88.7179,22.6727],[-88.6893,22.6888],[-88.6608,22.7048],[-88.6324,22.7209],[-88.6041,22.7369],[-88.576,22.7529],[-88.548,22.7689],[-88.52,22.7848],[-88.4921,22.8007],[-88.4644,22.8165],[-88.4367,22.8323],[-88.4091,22.848],[-88.3816,22.8636],[-88.3542,22.8792],[-88.3268,22.8948],[-88.2994,22.9103],[-88.2448,22.9413]]},"properties":{"arrival_time":" ","objectid":3194,"name":"Placemark","folderpath":"Most-Likely Time of Arrival: AL092026_Adv6","symbolid":0,"altmode":-1,"base":0,"clamped":0,"extruded":0,"idp_ingestdate":1791430186000,"idp_filedate":1791430092000,"idp_source":"AL092026_006adv_most_likely_toa_34","idp_subset":"al092026","binnumber":"AT4","snippet":"","popupinfo":"\n                    \u003ctable\u003e\n                        \u003ctr\u003e\u003ctd\u003eWind Speed Probability 5% contour\u003c/td\u003e\u003c/tr\u003e\n                    \u003c/table\u003e\n                ","st_length(shape)":36.888614668322759}}]}