{"type":"FeatureCollection","features":[{"type":"Feature","id":1610,"geometry":{"type":"Polygon","coordinates":[[[-91.8926,23.6488],[-91.9069,23.6469],[-91.9211,23.6449],[-91.9352,23.6426],[-91.9492,23.6401],[-91.9631,23.6373],[-91.977,23.6343],[-91.9907,23.6312],[-92.0044,23.6278],[-92.0179,23.6241],[-92.0313,23.6203],[-92.0447,23.6163],[-92.0579,23.612],[-92.071,23.6076],[-92.084,23.6029],[-92.0968,23.5981],[-92.1095,23.593],[-92.1221,23.5878],[-92.1346,23.5824],[-92.1469,23.5767],[-92.159,23.5709],[-92.1711,23.5649],[-92.1829,23.5587],[-92.1947,23.5524],[-92.2062,23.5459],[-92.2176,23.5392],[-92.2289,23.5323],[-92.2399,23.5253],[-92.2508,23.5181],[-92.2616,23.5107],[-92.2721,23.5032],[-92.2825,23.4955],[-92.2927,23.4877],[-92.3028,23.4798],[-92.3126,23.4717],[-92.3223,23.4634],[-92.3317,23.455],[-92.341,23.4465],[-92.3501,23.4379],[-92.359,23.4291],[-92.3677,23.4203],[-92.3762,23.4113],[-92.3846,23.4022],[-92.3929,23.3932],[-92.4012,23.3842],[-92.4095,23.3753],[-92.4177,23.3663],[-92.4259,23.3574],[-92.4342,23.3485],[-92.4424,23.3397],[-92.4505,23.3308],[-92.4586,23.3219],[-92.4665,23.3128],[-92.4743,23.3037],[-92.4818,23.2944],[-92.4892,23.285],[-92.4964,23.2754],[-92.5034,23.2658],[-92.5103,23.256],[-92.5169,23.2462],[-92.5234,23.2362],[-92.5296,23.2261],[-92.5357,23.2159],[-92.5416,23.2057],[-92.5473,23.1953],[-92.5528,23.1849],[-92.558,23.1743],[-92.5631,23.1637],[-92.568,23.153],[-92.5727,23.1422],[-92.5771,23.1314],[-92.5814,23.1205],[-92.5854,23.1095],[-92.5893,23.0984],[-92.5929,23.0873],[-92.5963,23.0761],[-92.5996,23.0649],[-92.6025,23.0536],[-92.6053,23.0423],[-92.6079,23.031],[-92.6102,23.0196],[-92.6124,23.0081],[-92.6143,22.9967],[-92.616,22.9852],[-92.6174,22.9736],[-92.6187,22.9621],[-92.6197,22.9505],[-92.6206,22.939],[-92.6211,22.9274],[-92.6215,22.9158],[-92.6217,22.9042],[-92.6216,22.8926],[-92.6213,22.881],[-92.6208,22.8694],[-92.6201,22.8578],[-92.6192,22.8462],[-92.618,22.8347],[-92.6166,22.8231],[-92.615,22.8116],[-92.6132,22.8001],[-92.6112,22.7887],[-92.609,22.7773],[-92.6065,22.7659],[-92.6038,22.7546],[-92.6009,22.7433],[-92.5978,22.732],[-92.5945,22.7208],[-92.591,22.7097],[-92.5873,22.6986],[-92.5833,22.6876],[-92.5792,22.6766],[-92.5748,22.6658],[-92.5703,22.6549],[-92.5655,22.6442],[-92.5605,22.6335],[-92.5554,22.623],[-92.55,22.6125],[-92.5445,22.6021],[-92.5387,22.5918],[-92.5327,22.5815],[-92.5266,22.5714],[-92.5203,22.5614],[-92.5138,22.5515],[-92.5071,22.5416],[-92.5002,22.5319],[-92.4931,22.5224],[-92.4859,22.5129],[-92.4785,22.5035],[-92.4709,22.4943],[-92.4631,22.4852],[-92.4551,22.4762],[-92.447,22.4673],[-92.4388,22.4586],[-92.4303,22.45],[-92.4217,22.4415],[-92.413,22.4332],[-92.4041,22.425],[-92.395,22.417],[-92.3858,22.4091],[-92.3765,22.4014],[-92.367,22.3938],[-92.3573,22.3864],[-92.3476,22.3791],[-92.3377,22.372],[-92.3276,22.365],[-92.3174,22.3582],[-92.3071,22.3516],[-92.2967,22.3451],[-92.2862,22.3388],[-92.2755,22.3327],[-92.2648,22.3268],[-92.2539,22.321],[-92.2429,22.3154],[-92.2318,22.31],[-92.2206,22.3047],[-92.2093,22.2997],[-92.198,22.2948],[-92.1865,22.2901],[-92.1749,22.2856],[-92.1633,22.2812],[-92.1516,22.2771],[-92.1398,22.2731],[-92.128,22.2694],[-92.116,22.2658],[-92.104,22.2624],[-92.092,22.2593],[-92.0799,22.2563],[-92.0677,22.2535],[-92.0555,22.2509],[-92.0432,22.2485],[-92.0309,22.2463],[-92.0185,22.2443],[-92.0062,22.2425],[-91.9937,22.2409],[-91.9813,22.2394],[-91.9688,22.2382],[-91.9564,22.2372],[-91.9438,22.2364],[-91.9313,22.2358],[-91.9188,22.2354],[-91.9063,22.2352],[-91.8937,22.2352],[-91.8812,22.2354],[-91.8687,22.2358],[-91.8562,22.2364],[-91.8437,22.2372],[-91.8312,22.2382],[-91.8187,22.2395],[-91.8062,22.2409],[-91.7938,22.2425],[-91.7815,22.2443],[-91.7691,22.2463],[-91.7568,22.2485],[-91.7445,22.2509],[-91.7323,22.2535],[-91.7202,22.2563],[-91.708,22.2593],[-91.696,22.2624],[-91.684,22.2658],[-91.6721,22.2694],[-91.6602,22.2731],[-91.6484,22.2771],[-91.6367,22.2812],[-91.6251,22.2856],[-91.6135,22.2901],[-91.602,22.2948],[-91.5907,22.2997],[-91.5794,22.3047],[-91.5682,22.31],[-91.5571,22.3154],[-91.5461,22.321],[-91.5352,22.3268],[-91.5245,22.3327],[-91.5138,22.3388],[-91.5033,22.3451],[-91.4929,22.3516],[-91.4826,22.3582],[-91.4724,22.365],[-91.4624,22.372],[-91.4525,22.3791],[-91.4427,22.3864],[-91.433,22.3938],[-91.4235,22.4013],[-91.4139,22.4088],[-91.4043,22.4164],[-91.3946,22.4239],[-91.3849,22.4315],[-91.3753,22.4391],[-91.3655,22.4467],[-91.3558,22.4544],[-91.346,22.4621],[-91.3363,22.4698],[-91.3266,22.4778],[-91.3171,22.486],[-91.3078,22.4943],[-91.2986,22.5028],[-91.2895,22.5115],[-91.2806,22.5203],[-91.2718,22.5294],[-91.2632,22.5385],[-91.2547,22.5479],[-91.2464,22.5574],[-91.2382,22.5671],[-91.2302,22.5769],[-91.2224,22.5869],[-91.2148,22.597],[-91.2073,22.6073],[-91.2,22.6177],[-91.1929,22.6283],[-91.186,22.6391],[-91.1793,22.6499],[-91.1727,22.6609],[-91.1664,22.6721],[-91.1602,22.6833],[-91.1543,22.6947],[-91.1486,22.7062],[-91.1431,22.7179],[-91.1377,22.7296],[-91.1327,22.7415],[-91.1278,22.7535],[-91.1231,22.7656],[-91.1187,22.7778],[-91.1145,22.7901],[-91.1105,22.8025],[-91.1067,22.8149],[-91.1032,22.8275],[-91.0999,22.8402],[-91.0969,22.8529],[-91.0941,22.8658],[-91.0915,22.8787],[-91.0892,22.8916],[-91.0871,22.9047],[-91.0853,22.9178],[-91.0837,22.931],[-91.0824,22.9442],[-91.0813,22.9574],[-91.0805,22.9708],[-91.0799,22.9841],[-91.0796,22.9975],[-91.0795,23.011],[-91.0797,23.0244],[-91.0802,23.0379],[-91.0809,23.0515],[-91.0819,23.065],[-91.0832,23.0785],[-91.0847,23.0921],[-91.0865,23.1057],[-91.0886,23.1192],[-91.0909,23.1328],[-91.0935,23.1463],[-91.0964,23.1599],[-91.0995,23.1734],[-91.1029,23.1869],[-91.1066,23.2003],[-91.1105,23.2138],[-91.1147,23.2272],[-91.1192,23.2405],[-91.1239,23.2539],[-91.129,23.2671],[-91.1342,23.2803],[-91.1398,23.2935],[-91.1456,23.3066],[-91.1517,23.3196],[-91.1581,23.3325],[-91.1647,23.3454],[-91.1716,23.3582],[-91.1787,23.3709],[-91.1861,23.3835],[-91.1938,23.3961],[-91.2017,23.4085],[-91.2099,23.4208],[-91.2184,23.433],[-91.2272,23.445],[-91.2366,23.4565],[-91.2466,23.4676],[-91.2571,23.4782],[-91.2681,23.4884],[-91.2796,23.4982],[-91.2917,23.5074],[-91.3042,23.5161],[-91.3171,23.5244],[-91.3304,23.5322],[-91.3437,23.5398],[-91.3572,23.5472],[-91.3708,23.5544],[-91.3845,23.5613],[-91.3983,23.568],[-91.4122,23.5744],[-91.4262,23.5806],[-91.4403,23.5865],[-91.4544,23.5922],[-91.4687,23.5977],[-91.483,23.6029],[-91.4973,23.6078],[-91.5118,23.6125],[-91.5263,23.617],[-91.5408,23.6212],[-91.5554,23.6252],[-91.57,23.6289],[-91.5847,23.6324],[-91.5994,23.6356],[-91.6141,23.6386],[-91.6289,23.6413],[-91.6437,23.6438],[-91.6585,23.6461],[-91.6732,23.6481],[-91.688,23.6498],[-91.7028,23.6513],[-91.7176,23.6526],[-91.7324,23.6536],[-91.7471,23.6543],[-91.7619,23.6548],[-91.7766,23.6551],[-91.7912,23.6552],[-91.8059,23.655],[-91.8205,23.6545],[-91.835,23.6538],[-91.8495,23.6529],[-91.8639,23.6518],[-91.8783,23.6504],[-91.8926,23.6488]]]},"properties":{"objectid":1610,"radii":34,"stormid":"al092026","basin":"al","stormnum":9,"advnum":"6","validtime":"2026100803","synoptime":"2026100800","timezone":"UTC","tau":0,"ne":50,"se":40,"sw":40,"nw":40,"idp_source":"al092026_2026100803_initialradii","idp_filedate":1791430091000,"idp_ingestdate":1791430204000,"st_area(shape)":1.7118026939111717,"st_perimeter(shape)":4.6541082270727534,"binnumber":"AT4"}},{"type":"Feature","id":1611,"geometry":{"type":"Polygon","coordinates":[[[-91.8979,23.068],[-91.9011,23.0644],[-91.9041,23.0606],[-91.907,23.0568],[-91.9097,23.053],[-91.9123,23.0492],[-91.9147,23.0453],[-91.917,23.0413],[-91.9192,23.0374],[-91.9212,23.0334],[-91.9231,23.0294],[-91.9248,23.0254],[-91.9264,23.0213],[-91.9278,23.0173],[-91.9291,23.0132],[-91.9302,23.0092],[-91.9312,23.0051],[-91.932,23.001],[-91.9327,22.997],[-91.9333,22.9929],[-91.9337,22.9889],[-91.934,22.9849],[-91.9341,22.9809],[-91.9341,22.9769],[-91.934,22.973],[-91.9337,22.9691],[-91.9333,22.9652],[-91.9327,22.9613],[-91.932,22.9575],[-91.9312,22.9538],[-91.9302,22.95],[-91.9291,22.9464],[-91.9279,22.9427],[-91.9265,22.9392],[-91.9251,22.9357],[-91.9235,22.9322],[-91.9218,22.9288],[-91.9199,22.9255],[-91.9179,22.9222],[-91.9159,22.9191],[-91.9137,22.9159],[-91.9114,22.9129],[-91.9092,22.9102],[-91.9074,22.908],[-91.906,22.9062],[-91.905,22.9049],[-91.9045,22.9041],[-91.9044,22.9038],[-91.9048,22.9039],[-91.9057,22.9043],[-91.907,22.9052],[-91.9087,22.9063],[-91.9103,22.9073],[-91.9121,22.9083],[-91.9138,22.9092],[-91.9156,22.91],[-91.9175,22.9108],[-91.9194,22.9115],[-91.9213,22.9122],[-91.9232,22.9128],[-91.9252,22.9134],[-91.9272,22.9139],[-91.9292,22.9143],[-91.9312,22.9147],[-91.9333,22.915],[-91.9354,22.9153],[-91.9375,22.9155],[-91.9396,22.9156],[-91.9418,22.9157],[-91.9439,22.9157],[-91.9461,22.9156],[-91.9483,22.9155],[-91.9505,22.9153],[-91.9527,22.9151],[-91.9548,22.9147],[-91.9571,22.9143],[-91.9593,22.9139],[-91.9615,22.9134],[-91.9637,22.9128],[-91.9659,22.9121],[-91.9681,22.9114],[-91.9702,22.9106],[-91.9724,22.9097],[-91.9746,22.9088],[-91.9767,22.9078],[-91.9789,22.9068],[-91.981,22.9056],[-91.9831,22.9044],[-91.9851,22.9032],[-91.9872,22.9019],[-91.9892,22.9005],[-91.9912,22.899],[-91.9932,22.8975],[-91.9951,22.8959],[-91.997,22.8943],[-91.9989,22.8926],[-92.0007,22.8908],[-92.0025,22.889],[-92.0043,22.8871],[-92.006,22.8851],[-92.0077,22.8831],[-92.0093,22.8811],[-92.0109,22.8789],[-92.0125,22.8768],[-92.014,22.8745],[-92.0154,22.8722],[-92.0168,22.8699],[-92.0181,22.8675],[-92.0194,22.865],[-92.0206,22.8625],[-92.0218,22.86],[-92.0229,22.8574],[-92.0239,22.8547],[-92.0249,22.852],[-92.0258,22.8493],[-92.0266,22.8465],[-92.0274,22.8437],[-92.0281,22.8408],[-92.0287,22.8379],[-92.0293,22.835],[-92.0298,22.832],[-92.0302,22.829],[-92.0306,22.826],[-92.0308,22.8229],[-92.031,22.8198],[-92.0311,22.8166],[-92.0312,22.8134],[-92.0311,22.8102],[-92.031,22.807],[-92.0308,22.8038],[-92.0305,22.8005],[-92.0301,22.7972],[-92.0296,22.7939],[-92.0291,22.7906],[-92.0284,22.7873],[-92.0277,22.784],[-92.0269,22.7806],[-92.026,22.7772],[-92.025,22.7739],[-92.0239,22.7705],[-92.0227,22.7671],[-92.0215,22.7637],[-92.0201,22.7604],[-92.0187,22.757],[-92.0171,22.7536],[-92.0155,22.7502],[-92.0138,22.7469],[-92.012,22.7435],[-92.0101,22.7402],[-92.0081,22.7369],[-92.006,22.7336],[-92.0038,22.7303],[-92.0015,22.727],[-91.9992,22.7238],[-91.9967,22.7206],[-91.9942,22.7174],[-91.9915,22.7142],[-91.9888,22.7111],[-91.986,22.708],[-91.9831,22.7049],[-91.98,22.7019],[-91.977,22.6989],[-91.9738,22.6959],[-91.9705,22.693],[-91.9671,22.6901],[-91.9637,22.6873],[-91.9602,22.6845],[-91.9566,22.6818],[-91.9528,22.6791],[-91.9491,22.6765],[-91.9452,22.6739],[-91.9412,22.6714],[-91.9372,22.6689],[-91.9331,22.6665],[-91.9289,22.6642],[-91.9246,22.6619],[-91.9203,22.6597],[-91.9158,22.6576],[-91.9113,22.6555],[-91.9068,22.6535],[-91.9021,22.6516],[-91.8974,22.6498],[-91.8926,22.648],[-91.8878,22.6463],[-91.8828,22.6447],[-91.8779,22.6432],[-91.8728,22.6418],[-91.8677,22.6404],[-91.8626,22.6391],[-91.8573,22.6379],[-91.8521,22.6368],[-91.8467,22.6358],[-91.8413,22.6349],[-91.8359,22.6341],[-91.8304,22.6334],[-91.8249,22.6328],[-91.8193,22.6322],[-91.8137,22.6318],[-91.808,22.6315],[-91.8023,22.6312],[-91.7966,22.6311],[-91.7908,22.6311],[-91.785,22.6311],[-91.7792,22.6313],[-91.7733,22.6316],[-91.7675,22.632],[-91.7616,22.6325],[-91.7556,22.6331],[-91.7497,22.6339],[-91.7437,22.6347],[-91.7377,22.6356],[-91.7318,22.6367],[-91.7257,22.6379],[-91.7197,22.6391],[-91.7137,22.6405],[-91.7077,22.642],[-91.7017,22.6437],[-91.6957,22.6454],[-91.6897,22.6473],[-91.6837,22.6492],[-91.6777,22.6513],[-91.6718,22.6535],[-91.6659,22.6559],[-91.6602,22.6586],[-91.6547,22.6615],[-91.6494,22.6646],[-91.6443,22.668],[-91.6394,22.6717],[-91.6347,22.6755],[-91.6303,22.6796],[-91.6261,22.6839],[-91.622,22.6883],[-91.618,22.6928],[-91.6142,22.6974],[-91.6104,22.702],[-91.6067,22.7067],[-91.603,22.7114],[-91.5995,22.7163],[-91.5961,22.7211],[-91.5927,22.726],[-91.5895,22.731],[-91.5863,22.736],[-91.5833,22.7411],[-91.5803,22.7462],[-91.5774,22.7514],[-91.5747,22.7566],[-91.572,22.7618],[-91.5694,22.7671],[-91.5669,22.7725],[-91.5646,22.7778],[-91.5623,22.7832],[-91.5601,22.7887],[-91.5581,22.7942],[-91.5561,22.7997],[-91.5543,22.8052],[-91.5525,22.8108],[-91.5509,22.8164],[-91.5493,22.822],[-91.5479,22.8277],[-91.5466,22.8333],[-91.5454,22.839],[-91.5443,22.8447],[-91.5433,22.8505],[-91.5424,22.8562],[-91.5416,22.862],[-91.5409,22.8677],[-91.5403,22.8735],[-91.5399,22.8793],[-91.5395,22.8851],[-91.5393,22.8909],[-91.5392,22.8967],[-91.5392,22.9025],[-91.5393,22.9083],[-91.5395,22.9141],[-91.5398,22.9199],[-91.5402,22.9257],[-91.5407,22.9315],[-91.5414,22.9372],[-91.5421,22.943],[-91.543,22.9487],[-91.544,22.9545],[-91.545,22.9602],[-91.5462,22.9659],[-91.5475,22.9716],[-91.5489,22.9772],[-91.5504,22.9828],[-91.5521,22.9885],[-91.5538,22.994],[-91.5556,22.9996],[-91.5575,23.0051],[-91.5596,23.0106],[-91.5617,23.0161],[-91.564,23.0215],[-91.5663,23.0269],[-91.5688,23.0322],[-91.5713,23.0375],[-91.574,23.0428],[-91.5767,23.048],[-91.5796,23.0532],[-91.5825,23.0583],[-91.5856,23.0634],[-91.5887,23.0684],[-91.5919,23.0734],[-91.5953,23.0783],[-91.5987,23.0832],[-91.6022,23.088],[-91.6058,23.0928],[-91.6095,23.0975],[-91.6133,23.1021],[-91.6172,23.1067],[-91.6211,23.1112],[-91.6252,23.1156],[-91.6295,23.1199],[-91.6341,23.1238],[-91.6392,23.1272],[-91.6446,23.1304],[-91.6504,23.1331],[-91.6565,23.1354],[-91.6629,23.1372],[-91.6696,23.1387],[-91.6766,23.1397],[-91.6838,23.1404],[-91.6909,23.1409],[-91.6979,23.1413],[-91.7049,23.1416],[-91.7119,23.1417],[-91.7187,23.1416],[-91.7256,23.1414],[-91.7324,23.1411],[-91.7391,23.1406],[-91.7457,23.14],[-91.7523,23.1392],[-91.7587,23.1383],[-91.7651,23.1373],[-91.7714,23.1361],[-91.7777,23.1348],[-91.7838,23.1334],[-91.7899,23.1318],[-91.7958,23.1301],[-91.8017,23.1283],[-91.8074,23.1264],[-91.8131,23.1244],[-91.8186,23.1222],[-91.8241,23.12],[-91.8294,23.1176],[-91.8346,23.1152],[-91.8397,23.1126],[-91.8447,23.11],[-91.8496,23.1072],[-91.8543,23.1044],[-91.8589,23.1015],[-91.8634,23.0985],[-91.8678,23.0954],[-91.872,23.0922],[-91.8761,23.0889],[-91.8801,23.0856],[-91.8839,23.0822],[-91.8876,23.0788],[-91.8912,23.0752],[-91.8947,23.0717],[-91.8979,23.068]]]},"properties":{"objectid":1611,"radii":50,"stormid":"al092026","basin":"al","stormnum":9,"advnum":"6","validtime":"2026100803","synoptime":"2026100800","timezone":"UTC","tau":0,"ne":20,"se":20,"sw":10,"nw":0,"idp_source":"al092026_2026100803_initialradii","idp_filedate":1791430091000,"idp_ingestdate":1791430204000,"st_area(shape)":0.18801608225692668,"st_perimeter(shape)":1.657788869061781,"binnumber":"AT4"}}]}