{"type":"FeatureCollection","features":[{"type":"Feature","id":1591,"geometry":{"type":"Polygon","coordinates":[[[-93.1973,22.2732],[-93.0626,22.2732],[-93.0626,22.3182],[-92.7931,22.3182],[-92.7931,22.3632],[-92.5685,22.3632],[-92.5685,22.4082],[-92.299,22.4082],[-92.299,22.4532],[-92.0744,22.4532],[-92.0744,22.4982],[-91.9846,22.4982],[-91.9846,22.5432],[-91.8948,22.5432],[-91.8948,22.5881],[-91.8049,22.5881],[-91.8049,22.6331],[-91.7151,22.6331],[-91.7151,22.6781],[-91.6253,22.6781],[-91.6253,22.7231],[-91.5803,22.7231],[-91.5803,22.7681],[-91.5354,22.7681],[-91.5354,23.0831],[-91.5803,23.0831],[-91.5803,23.1281],[-91.6253,23.1281],[-91.6253,23.173],[-91.76,23.173],[-91.76,23.1281],[-91.8498,23.1281],[-91.8498,23.0831],[-91.9397,23.0831],[-91.9397,23.0381],[-92.0295,23.0381],[-92.0295,22.9931],[-92.1642,22.9931],[-92.1642,22.9481],[-92.2092,22.9481],[-92.2092,22.9031],[-92.3439,22.9031],[-92.3439,22.8581],[-92.4787,22.8581],[-92.4787,22.8131],[-92.5685,22.8131],[-92.5685,22.7681],[-92.7032,22.7681],[-92.7032,22.7231],[-92.838,22.7231],[-92.838,22.6781],[-92.9278,22.6781],[-92.9278,22.6331],[-93.0176,22.6331],[-93.0176,22.5881],[-93.1524,22.5881],[-93.1524,22.5432],[-93.2871,22.5432],[-93.2871,22.3632],[-93.2422,22.3632],[-93.2422,22.3182],[-93.1973,22.3182],[-93.1973,22.2732]]]},"properties":{"objectid":1591,"radii":50,"stormid":"AL092026","basin":"al","stormnum":9,"advnum":"6","startdtg":"2026100618","enddtg":"2026100800","idp_source":"AL092026_windswath","idp_filedate":1791430091000,"idp_ingestdate":1791430179000,"st_area(shape)":0.72952923224745614,"st_perimeter(shape)":5.3031076363083685,"binnumber":"AT4"}},{"type":"Feature","id":1592,"geometry":{"type":"Polygon","coordinates":[[[-94.3202,21.7333],[-94.1405,21.7333],[-94.1405,21.7783],[-93.9609,21.7783],[-93.9609,21.8233],[-93.6914,21.8233],[-93.6914,21.8683],[-93.0626,21.8683],[-93.0626,21.9133],[-92.838,21.9133],[-92.838,21.9583],[-92.6134,21.9583],[-92.6134,22.0032],[-92.3888,22.0032],[-92.3888,22.0482],[-92.1642,22.0482],[-92.1642,22.0932],[-91.9846,22.0932],[-91.9846,22.1382],[-91.8948,22.1382],[-91.8948,22.1832],[-91.8049,22.1832],[-91.8049,22.2282],[-91.7151,22.2282],[-91.7151,22.2732],[-91.6253,22.2732],[-91.6253,22.3182],[-91.5354,22.3182],[-91.5354,22.3632],[-91.4456,22.3632],[-91.4456,22.4082],[-91.4007,22.4082],[-91.4007,22.4532],[-91.3558,22.4532],[-91.3558,22.4982],[-91.2659,22.4982],[-91.2659,22.5432],[-91.221,22.5432],[-91.221,22.6331],[-91.1761,22.6331],[-91.1761,22.6781],[-91.1312,22.6781],[-91.1312,22.7681],[-91.0863,22.7681],[-91.0863,22.9481],[-91.0414,22.9481],[-91.0414,23.0831],[-91.0863,23.0831],[-91.0863,23.308],[-91.1312,23.308],[-91.1312,23.398],[-91.1761,23.398],[-91.1761,23.443],[-91.221,23.443],[-91.221,23.488],[-91.2659,23.488],[-91.2659,23.533],[-91.3109,23.533],[-91.3109,23.578],[-91.3558,23.578],[-91.4007,23.578],[-91.4007,23.623],[-91.4456,23.623],[-91.5354,23.623],[-91.5354,23.668],[-91.9846,23.668],[-91.9846,23.623],[-92.1193,23.623],[-92.1193,23.578],[-92.2092,23.578],[-92.2092,23.533],[-92.299,23.533],[-92.299,23.488],[-92.3888,23.488],[-92.3888,23.443],[-92.5236,23.443],[-92.5236,23.398],[-92.7481,23.398],[-92.7481,23.353],[-92.9727,23.353],[-92.9727,23.308],[-93.1973,23.308],[-93.1973,23.263],[-93.4219,23.263],[-93.4219,23.218],[-93.5117,23.218],[-93.5117,23.173],[-93.6015,23.173],[-93.6015,23.1281],[-93.6914,23.1281],[-93.6914,23.0831],[-93.7812,23.0831],[-93.7812,23.0381],[-93.8261,23.0381],[-93.8261,22.9931],[-93.916,22.9931],[-93.916,22.9481],[-94.0058,22.9481],[-94.0058,22.9031],[-94.0956,22.9031],[-94.0956,22.8581],[-94.1405,22.8581],[-94.1405,22.8131],[-94.2753,22.8131],[-94.2753,22.7681],[-94.3651,22.7681],[-94.3651,22.7231],[-94.4549,22.7231],[-94.4549,22.6781],[-94.5897,22.6781],[-94.5897,22.6331],[-94.6795,22.6331],[-94.6795,22.5881],[-94.7693,22.5881],[-94.7693,22.5432],[-94.9041,22.5432],[-94.9041,22.4982],[-94.949,22.4982],[-94.949,22.4532],[-95.0388,22.4532],[-95.0388,22.4082],[-95.0838,22.4082],[-95.0838,22.0932],[-95.0388,22.0932],[-95.0388,22.0032],[-94.9939,22.0032],[-94.9939,21.9583],[-94.949,21.9583],[-94.949,21.9133],[-94.9041,21.9133],[-94.8592,21.9133],[-94.8592,21.8683],[-94.5448,21.8683],[-94.4999,21.8683],[-94.4999,21.8233],[-94.4549,21.8233],[-94.41,21.8233],[-94.41,21.7783],[-94.3651,21.7783],[-94.3202,21.7783],[-94.3202,21.7333]],[[-93.1973,22.2732],[-93.1973,22.3182],[-93.2422,22.3182],[-93.2422,22.3632],[-93.2871,22.3632],[-93.2871,22.5432],[-93.1524,22.5432],[-93.1524,22.5881],[-93.0176,22.5881],[-93.0176,22.6331],[-92.9278,22.6331],[-92.9278,22.6781],[-92.838,22.6781],[-92.838,22.7231],[-92.7032,22.7231],[-92.7032,22.7681],[-92.5685,22.7681],[-92.5685,22.8131],[-92.4787,22.8131],[-92.4787,22.8581],[-92.3439,22.8581],[-92.3439,22.9031],[-92.2092,22.9031],[-92.2092,22.9481],[-92.1642,22.9481],[-92.1642,22.9931],[-92.0295,22.9931],[-92.0295,23.0381],[-91.9397,23.0381],[-91.9397,23.0831],[-91.8498,23.0831],[-91.8498,23.1281],[-91.76,23.1281],[-91.76,23.173],[-91.6253,23.173],[-91.6253,23.1281],[-91.5803,23.1281],[-91.5803,23.0831],[-91.5354,23.0831],[-91.5354,22.7681],[-91.5803,22.7681],[-91.5803,22.7231],[-91.6253,22.7231],[-91.6253,22.6781],[-91.7151,22.6781],[-91.7151,22.6331],[-91.8049,22.6331],[-91.8049,22.5881],[-91.8948,22.5881],[-91.8948,22.5432],[-91.9846,22.5432],[-91.9846,22.4982],[-92.0744,22.4982],[-92.0744,22.4532],[-92.299,22.4532],[-92.299,22.4082],[-92.5685,22.4082],[-92.5685,22.3632],[-92.7931,22.3632],[-92.7931,22.3182],[-93.0626,22.3182],[-93.0626,22.2732],[-93.1973,22.2732]]]},"properties":{"objectid":1592,"radii":34,"stormid":"AL092026","basin":"al","stormnum":9,"advnum":"6","startdtg":"2026100618","enddtg":"2026100800","idp_source":"AL092026_windswath","idp_filedate":1791430091000,"idp_ingestdate":1791430179000,"st_area(shape)":4.0538383349829763,"st_perimeter(shape)":17.25725042216925,"binnumber":"AT4"}}]}