{"type":"FeatureCollection","features":[{"type":"Feature","id":561,"geometry":{"type":"LineString","coordinates":[[-91.9,22.9],[-90.7,23.4],[-89.1,24.7],[-87.9,26.8],[-87.3,29.6],[-87.5,32.5],[-88.0,35.1]]},"properties":{"objectid":561,"stormname":"Isaias","stormtype":"TS","basin":"AL","advdate":"1000 PM CDT Wed Oct 07 2026","advisnum":"6","fcstprd":120,"stormnum":9,"idp_source":"al092026-006_5day_lin","idp_filedate":1791430091000,"idp_ingestdate":1791430156000,"st_length(shape)":14.198323179521818,"binnumber":"AT4"}}]}