{"type":"FeatureCollection","features":[{"type":"Feature","id":561,"geometry":{"type":"Polygon","coordinates":[[[-91.9602,22.642],[-91.9365,22.6387],[-91.911,22.6377],[-91.8981,22.6382],[-91.8568,22.6413],[-91.8294,22.6456],[-91.8022,22.651],[-91.7755,22.6571],[-91.7491,22.6635],[-91.7229,22.6701],[-91.6966,22.6765],[-91.67,22.6827],[-91.6431,22.6886],[-91.616,22.6942],[-91.5886,22.6996],[-91.5611,22.705],[-91.5339,22.7105],[-91.5066,22.716],[-91.4793,22.7216],[-91.4521,22.7271],[-91.4247,22.7325],[-91.3973,22.7378],[-91.37,22.7433],[-91.3427,22.7489],[-91.3155,22.7544],[-91.2882,22.7599],[-91.2608,22.7653],[-91.2334,22.7707],[-91.2063,22.7763],[-91.1794,22.7822],[-91.1528,22.7884],[-91.1264,22.7948],[-91.1003,22.8015],[-91.0745,22.8085],[-91.049,22.8157],[-91.0237,22.8232],[-90.9988,22.8311],[-90.9741,22.8392],[-90.9495,22.8474],[-90.9248,22.8555],[-90.9003,22.8638],[-90.8758,22.8721],[-90.8511,22.8802],[-90.8266,22.8885],[-90.8025,22.8971],[-90.7786,22.9061],[-90.7549,22.9151],[-90.7316,22.9246],[-90.7085,22.9343],[-90.6852,22.9437],[-90.6616,22.9529],[-90.6381,22.9623],[-90.6146,22.9716],[-90.5912,22.9809],[-90.5682,22.9908],[-90.5458,23.0011],[-90.5235,23.0116],[-90.5015,23.0224],[-90.4798,23.0334],[-90.4579,23.0443],[-90.436,23.0552],[-90.4033,23.0718],[-90.3923,23.0772],[-90.3704,23.0881],[-90.3487,23.0991],[-90.3268,23.11],[-90.3049,23.1209],[-90.2831,23.1319],[-90.2612,23.1428],[-90.2393,23.1537],[-90.2176,23.1648],[-90.1957,23.1757],[-90.1738,23.1865],[-90.152,23.1976],[-90.1301,23.2085],[-90.1082,23.2194],[-90.0865,23.2304],[-90.0646,23.2413],[-90.0427,23.2522],[-90.0209,23.2632],[-89.999,23.2741],[-89.9771,23.285],[-89.9554,23.2961],[-89.9335,23.307],[-89.9116,23.3179],[-89.8898,23.3289],[-89.8679,23.3398],[-89.846,23.3507],[-89.8244,23.3619],[-89.8029,23.3732],[-89.7817,23.3847],[-89.761,23.3968],[-89.7406,23.4093],[-89.7205,23.4219],[-89.7003,23.4345],[-89.68,23.447],[-89.6594,23.4592],[-89.6385,23.4711],[-89.6177,23.4831],[-89.5971,23.4953],[-89.5768,23.5078],[-89.5566,23.5204],[-89.5364,23.533],[-89.5058,23.5516],[-89.4955,23.5577],[-89.4747,23.5696],[-89.4538,23.5816],[-89.4332,23.5938],[-89.4129,23.6063],[-89.3928,23.619],[-89.3731,23.632],[-89.3534,23.6451],[-89.3337,23.6582],[-89.3141,23.6714],[-89.2944,23.6845],[-89.2747,23.6976],[-89.2552,23.7109],[-89.2359,23.7244],[-89.2169,23.7382],[-89.1889,23.7594],[-89.1797,23.7666],[-89.1519,23.788],[-89.1425,23.795],[-89.1235,23.8087],[-89.1042,23.8223],[-89.0847,23.8355],[-89.065,23.8487],[-89.0355,23.8684],[-89.0258,23.8751],[-89.0065,23.8886],[-88.9876,23.9025],[-88.9602,23.9243],[-88.9339,23.9471],[-88.9251,23.9548],[-88.9075,23.97],[-88.8895,23.9847],[-88.8708,23.9989],[-88.8614,24.0058],[-88.8425,24.0198],[-88.8145,24.0409],[-88.8054,24.0483],[-88.7706,24.079],[-88.762,24.0869],[-88.7455,24.1032],[-88.729,24.1194],[-88.7127,24.136],[-88.6962,24.1523],[-88.6799,24.1688],[-88.6634,24.1851],[-88.6472,24.2016],[-88.6307,24.2179],[-88.6144,24.2345],[-88.5979,24.2508],[-88.5816,24.2673],[-88.5651,24.2836],[-88.5489,24.3001],[-88.5324,24.3164],[-88.5161,24.333],[-88.4996,24.3492],[-88.4833,24.3658],[-88.4668,24.3821],[-88.4505,24.3986],[-88.434,24.4149],[-88.4178,24.4314],[-88.4013,24.4477],[-88.385,24.4643],[-88.3685,24.4806],[-88.3522,24.4971],[-88.336,24.5137],[-88.3202,24.5307],[-88.3048,24.5481],[-88.2901,24.5662],[-88.2759,24.5848],[-88.262,24.6037],[-88.2481,24.6226],[-88.234,24.6413],[-88.2193,24.6594],[-88.2038,24.6768],[-88.1881,24.6938],[-88.1721,24.7106],[-88.1564,24.7277],[-88.1409,24.745],[-88.1262,24.7632],[-88.1121,24.7818],[-88.0982,24.8007],[-88.0843,24.8196],[-88.0701,24.8383],[-88.0554,24.8564],[-88.0402,24.874],[-88.025,24.8916],[-88.0098,24.9092],[-87.9951,24.9273],[-87.974,24.9554],[-87.9671,24.9649],[-87.9532,24.9838],[-87.9393,25.0027],[-87.9251,25.0213],[-87.9107,25.0397],[-87.8965,25.0584],[-87.8826,25.0773],[-87.869,25.0965],[-87.8556,25.1159],[-87.8425,25.1356],[-87.8294,25.1553],[-87.8097,25.1848],[-87.8032,25.1947],[-87.7901,25.2144],[-87.7704,25.2439],[-87.7639,25.2538],[-87.7441,25.2832],[-87.7374,25.2929],[-87.7238,25.3121],[-87.7099,25.331],[-87.6957,25.3496],[-87.6813,25.368],[-87.6674,25.3869],[-87.6476,25.4163],[-87.6412,25.4263],[-87.623,25.4573],[-87.617,25.4678],[-87.5988,25.4988],[-87.5927,25.509],[-87.5737,25.5393],[-87.5672,25.5492],[-87.5541,25.5689],[-87.5345,25.5985],[-87.5279,25.6083],[-87.5084,25.638],[-87.502,25.648],[-87.4832,25.6784],[-87.4711,25.6992],[-87.4652,25.7097],[-87.454,25.7312],[-87.4371,25.7635],[-87.4314,25.7743],[-87.4201,25.7958],[-87.4083,25.8169],[-87.3897,25.8475],[-87.3834,25.8576],[-87.3709,25.8778],[-87.3583,25.898],[-87.346,25.9185],[-87.3285,25.9503],[-87.3229,25.961],[-87.3061,25.9935],[-87.3006,26.0044],[-87.2843,26.0373],[-87.2733,26.0591],[-87.2624,26.0811],[-87.2571,26.0921],[-87.2405,26.1248],[-87.235,26.1357],[-87.2243,26.1578],[-87.2078,26.1905],[-87.2023,26.2014],[-87.186,26.2343],[-87.175,26.2561],[-87.1695,26.267],[-87.1587,26.2891],[-87.1477,26.3109],[-87.1367,26.3327],[-87.1205,26.3656],[-87.115,26.3765],[-87.0986,26.4094],[-87.0932,26.4204],[-87.0822,26.4422],[-87.0658,26.475],[-87.0604,26.4861],[-87.0439,26.5188],[-87.0384,26.5297],[-87.0221,26.5626],[-87.0111,26.5844],[-87.0004,26.6065],[-86.9899,26.6288],[-86.9847,26.64],[-86.9697,26.6742],[-86.965,26.6859],[-86.9511,26.7213],[-86.9418,26.7448],[-86.9372,26.7566],[-86.9226,26.7912],[-86.9123,26.8137],[-86.9019,26.8362],[-86.8968,26.8474],[-86.8812,26.8811],[-86.8761,26.8924],[-86.8667,26.9157],[-86.8528,26.9511],[-86.8435,26.9746],[-86.8343,26.9982],[-86.8248,27.0216],[-86.82,27.0331],[-86.8057,27.0681],[-86.7965,27.0917],[-86.7872,27.1152],[-86.7779,27.1387],[-86.7687,27.1624],[-86.7593,27.1857],[-86.7545,27.1973],[-86.7402,27.2322],[-86.731,27.2558],[-86.7264,27.2677],[-86.7124,27.3029],[-86.7078,27.3147],[-86.6937,27.3499],[-86.6889,27.3614],[-86.6746,27.3964],[-86.6656,27.4201],[-86.6567,27.444],[-86.648,27.4682],[-86.6397,27.4927],[-86.6316,27.5174],[-86.6233,27.542],[-86.6151,27.5665],[-86.607,27.5912],[-86.5988,27.6159],[-86.5906,27.6405],[-86.5823,27.665],[-86.5742,27.6897],[-86.5661,27.7144],[-86.5578,27.739],[-86.5496,27.7635],[-86.5455,27.7759],[-86.5333,27.8129],[-86.525,27.8375],[-86.5168,27.862],[-86.5127,27.8744],[-86.5005,27.9114],[-86.4924,27.9361],[-86.4845,27.961],[-86.4771,27.9864],[-86.4734,27.9991],[-86.4629,28.0378],[-86.4561,28.0638],[-86.4491,28.0897],[-86.4419,28.1153],[-86.4345,28.1407],[-86.4267,28.1658],[-86.419,28.1908],[-86.4152,28.2034],[-86.4043,28.2418],[-86.3974,28.2677],[-86.3905,28.2937],[-86.3836,28.3195],[-86.3764,28.3451],[-86.3689,28.3705],[-86.3612,28.3956],[-86.3534,28.4206],[-86.346,28.446],[-86.3388,28.4716],[-86.3318,28.4975],[-86.3251,28.5236],[-86.3186,28.5499],[-86.312,28.5761],[-86.3054,28.6024],[-86.2989,28.6286],[-86.2923,28.6549],[-86.2858,28.6812],[-86.2792,28.7074],[-86.2727,28.7337],[-86.2661,28.76],[-86.2629,28.7731],[-86.2531,28.8126],[-86.247,28.8393],[-86.2411,28.8662],[-86.2355,28.8934],[-86.2301,28.9208],[-86.2247,28.9483],[-86.2192,28.9756],[-86.2137,29.0029],[-86.2082,29.0302],[-86.2027,29.0575],[-86.1973,29.085],[-86.1919,29.1124],[-86.1864,29.1397],[-86.1809,29.167],[-86.1754,29.1944],[-86.1699,29.2217],[-86.1645,29.2491],[-86.1591,29.2766],[-86.1536,29.3039],[-86.1483,29.3313],[-86.1432,29.359],[-86.1383,29.387],[-86.1338,29.4154],[-86.1296,29.444],[-86.1252,29.4724],[-86.1204,29.5003],[-86.1154,29.5282],[-86.1104,29.556],[-86.1055,29.584],[-86.1011,29.6123],[-86.0969,29.641],[-86.0924,29.6694],[-86.0876,29.6973],[-86.0826,29.7251],[-86.0777,29.7531],[-86.0734,29.7816],[-86.07,29.811],[-86.0674,29.8412],[-86.065,29.8717],[-86.0624,29.9019],[-86.059,29.9313],[-86.0547,29.9598],[-86.0498,29.9878],[-86.0473,30.0017],[-86.0406,30.0443],[-86.0374,30.0738],[-86.0353,30.1045],[-86.0339,30.136],[-86.0329,30.1678],[-86.0316,30.1993],[-86.0295,30.2301],[-86.0262,30.2596],[-86.0219,30.2881],[-86.017,30.3161],[-86.0122,30.3441],[-86.0079,30.3725],[-86.0046,30.4021],[-86.0025,30.4328],[-86.0013,30.4645],[-86.0008,30.4968],[-86.0007,30.5295],[-86.0007,30.5623],[-86.0007,30.5951],[-86.0007,30.628],[-86.0007,30.6608],[-86.0007,30.6936],[-86.0007,30.7265],[-86.0005,30.7592],[-86.0,30.7915],[-85.9988,30.8231],[-85.9967,30.8538],[-85.9934,30.8834],[-85.9891,30.9119],[-85.9843,30.9398],[-85.9794,30.9678],[-85.9751,30.9963],[-85.9718,31.0259],[-85.9697,31.0566],[-85.9685,31.0882],[-85.968,31.1205],[-85.9679,31.1532],[-85.9679,31.1861],[-85.9679,31.2189],[-85.9679,31.2517],[-85.9679,31.2846],[-85.9679,31.301],[-85.9679,31.3502],[-85.9679,31.3831],[-85.9679,31.4159],[-85.9679,31.4487],[-85.9679,31.4815],[-85.9679,31.5144],[-85.9679,31.5472],[-85.9679,31.58],[-85.9679,31.6128],[-85.9679,31.6457],[-85.9679,31.6785],[-85.9679,31.7113],[-85.9679,31.7442],[-85.9679,31.777],[-85.9679,31.8098],[-85.9679,31.8427],[-85.9679,31.8755],[-85.9679,31.9083],[-85.9679,31.9412],[-85.9679,31.974],[-85.9679,32.0068],[-85.9679,32.0396],[-85.9679,32.0725],[-85.9679,32.1053],[-85.9679,32.1381],[-85.9679,32.171],[-85.9679,32.2038],[-85.9679,32.2366],[-85.9679,32.2694],[-85.9679,32.3023],[-85.9679,32.3351],[-85.9679,32.3679],[-85.9679,32.4008],[-85.9679,32.4336],[-85.9679,32.4664],[-85.9679,32.4993],[-85.9679,32.5321],[-85.9679,32.5649],[-85.9679,32.5977],[-85.9679,32.6306],[-85.9679,32.6634],[-85.9679,32.6962],[-85.9679,32.7291],[-85.9679,32.7619],[-85.9679,32.7947],[-85.9679,32.8275],[-85.9679,32.8604],[-85.9679,32.8932],[-85.9679,32.926],[-85.9679,32.9589],[-85.9679,32.9917],[-85.968,33.0244],[-85.9685,33.0567],[-85.9697,33.0884],[-85.9718,33.1191],[-85.9751,33.1486],[-85.9794,33.1771],[-85.9843,33.2051],[-85.9891,33.2331],[-85.9934,33.2616],[-85.9967,33.2911],[-85.9988,33.3218],[-86.0,33.3535],[-86.0005,33.3858],[-86.0007,33.4185],[-86.0007,33.4513],[-86.0007,33.4841],[-86.0007,33.517],[-86.0007,33.5498],[-86.0007,33.5826],[-86.0007,33.6155],[-86.0007,33.6483],[-86.0007,33.6811],[-86.0007,33.7139],[-86.0007,33.7468],[-86.0007,33.7796],[-86.0007,33.8124],[-86.0008,33.8451],[-86.0013,33.8774],[-86.0025,33.9091],[-86.0046,33.9398],[-86.0079,33.9694],[-86.0102,33.9834],[-86.017,34.0258],[-86.0219,34.0538],[-86.0262,34.0823],[-86.0295,34.1118],[-86.0316,34.1426],[-86.0328,34.1742],[-86.0333,34.2065],[-86.0334,34.2392],[-86.0334,34.272],[-86.0334,34.3049],[-86.0334,34.3377],[-86.0334,34.3705],[-86.0334,34.4034],[-86.0334,34.4362],[-86.0334,34.469],[-86.0336,34.5017],[-86.0341,34.534],[-86.0353,34.5657],[-86.0374,34.5964],[-86.0407,34.6259],[-86.045,34.6545],[-86.0498,34.6824],[-86.0522,34.6965],[-86.059,34.7389],[-86.0623,34.7684],[-86.0644,34.7992],[-86.0655,34.8308],[-86.0661,34.8631],[-86.0662,34.8958],[-86.0662,34.9286],[-86.0662,34.9615],[-86.0662,34.9943],[-86.0662,35.0271],[-86.0662,35.06],[-86.0662,35.0928],[-86.0664,35.1255],[-86.0669,35.1578],[-86.0681,35.1894],[-86.0701,35.2202],[-86.0734,35.2497],[-86.0758,35.2638],[-86.0804,35.292],[-86.0881,35.3335],[-86.0936,35.3608],[-86.0962,35.3746],[-86.1045,35.4156],[-86.1105,35.4424],[-86.1171,35.4686],[-86.1243,35.4942],[-86.1324,35.5189],[-86.1412,35.5429],[-86.1504,35.5666],[-86.1602,35.5896],[-86.1706,35.612],[-86.181,35.6344],[-86.1918,35.6564],[-86.1973,35.6673],[-86.2137,35.7001],[-86.2246,35.7221],[-86.2357,35.7437],[-86.247,35.7653],[-86.2585,35.7865],[-86.2706,35.8073],[-86.283,35.8276],[-86.2958,35.8477],[-86.3087,35.8676],[-86.322,35.8871],[-86.3423,35.916],[-86.3492,35.9255],[-86.3633,35.9443],[-86.3775,35.9628],[-86.3918,35.9813],[-86.4059,36.0001],[-86.4267,36.0284],[-86.4406,36.0473],[-86.4477,36.0567],[-86.4622,36.0749],[-86.4857,36.1007],[-86.5025,36.1167],[-86.5203,36.1316],[-86.5389,36.1458],[-86.5578,36.1597],[-86.5767,36.1737],[-86.5953,36.1878],[-86.6043,36.1952],[-86.631,36.2178],[-86.6397,36.2254],[-86.6573,36.2407],[-86.6842,36.263],[-86.6935,36.2701],[-86.7219,36.2908],[-86.7413,36.3042],[-86.761,36.3173],[-86.7809,36.3302],[-86.8011,36.3428],[-86.8216,36.3552],[-86.8423,36.3672],[-86.8633,36.379],[-86.884,36.3911],[-86.9044,36.4035],[-86.9347,36.4224],[-86.9448,36.4287],[-86.9757,36.4469],[-86.9862,36.4529],[-87.008,36.4639],[-87.0308,36.4739],[-87.0541,36.4833],[-87.0775,36.4928],[-87.1129,36.5066],[-87.1247,36.5112],[-87.1593,36.5257],[-87.1826,36.5352],[-87.1944,36.5398],[-87.2303,36.5531],[-87.2424,36.5574],[-87.28,36.5689],[-87.2927,36.5726],[-87.3184,36.5797],[-87.3444,36.5865],[-87.3837,36.5964],[-87.4099,36.603],[-87.4361,36.6095],[-87.4624,36.6161],[-87.4755,36.6194],[-87.5149,36.6291],[-87.5417,36.6351],[-87.5552,36.638],[-87.583,36.643],[-87.6262,36.6489],[-87.6409,36.6506],[-87.6852,36.6555],[-87.7142,36.6593],[-87.7425,36.6637],[-87.7704,36.6686],[-87.7983,36.6735],[-87.8268,36.6778],[-87.8412,36.6798],[-87.887,36.6832],[-87.9186,36.6844],[-87.9508,36.6849],[-87.9835,36.685],[-88.0162,36.685],[-88.0489,36.6849],[-88.0811,36.6844],[-88.0967,36.6836],[-88.1278,36.6819],[-88.1729,36.6778],[-88.1869,36.6754],[-88.2293,36.6686],[-88.2572,36.6637],[-88.2855,36.6593],[-88.3002,36.6576],[-88.344,36.6522],[-88.3735,36.6489],[-88.4024,36.6451],[-88.4306,36.6405],[-88.458,36.6351],[-88.4848,36.6291],[-88.5111,36.6227],[-88.5373,36.6161],[-88.5635,36.6095],[-88.5898,36.603],[-88.616,36.5964],[-88.6422,36.5898],[-88.6683,36.5831],[-88.6941,36.5762],[-88.7197,36.5689],[-88.7449,36.5613],[-88.7694,36.5531],[-88.7934,36.5443],[-88.8171,36.5352],[-88.8404,36.5257],[-88.8635,36.516],[-88.8868,36.5066],[-88.9222,36.4928],[-88.9339,36.4881],[-88.9572,36.4786],[-88.9803,36.4689],[-89.0135,36.4529],[-89.024,36.4469],[-89.0549,36.4287],[-89.065,36.4224],[-89.0953,36.4035],[-89.1055,36.3973],[-89.1364,36.3791],[-89.1469,36.3732],[-89.1781,36.3552],[-89.1883,36.349],[-89.2087,36.3365],[-89.2287,36.3238],[-89.2583,36.3042],[-89.2778,36.2908],[-89.2969,36.2771],[-89.3155,36.263],[-89.3424,36.2407],[-89.3512,36.233],[-89.3687,36.2178],[-89.3863,36.2026],[-89.4044,36.1878],[-89.423,36.1737],[-89.4419,36.1597],[-89.4608,36.1458],[-89.4794,36.1316],[-89.4972,36.1167],[-89.514,36.1007],[-89.53,36.0838],[-89.5449,36.066],[-89.5591,36.0473],[-89.573,36.0284],[-89.5869,36.0095],[-89.601,35.9909],[-89.6157,35.9727],[-89.6309,35.9552],[-89.6461,35.9376],[-89.6685,35.9108],[-89.6758,35.9016],[-89.6894,35.8824],[-89.7082,35.8521],[-89.7199,35.8309],[-89.7312,35.8094],[-89.7424,35.7877],[-89.7532,35.7658],[-89.7641,35.7439],[-89.7751,35.7221],[-89.786,35.7001],[-89.7969,35.6782],[-89.8079,35.6564],[-89.8186,35.6344],[-89.8239,35.6232],[-89.8395,35.5896],[-89.8493,35.5666],[-89.8585,35.5429],[-89.8673,35.5189],[-89.8754,35.4942],[-89.8826,35.4686],[-89.8892,35.4424],[-89.8952,35.4156],[-89.9007,35.3882],[-89.9061,35.3608],[-89.9116,35.3335],[-89.9143,35.3198],[-89.9219,35.2782],[-89.9263,35.2497],[-89.9296,35.2202],[-89.9317,35.1894],[-89.9328,35.1578],[-89.9334,35.1255],[-89.9334,35.0929],[-89.9328,35.0606],[-89.9316,35.029],[-89.9296,34.9982],[-89.9263,34.9687],[-89.9218,34.9403],[-89.9189,34.9268],[-89.9104,34.8861],[-89.904,34.8597],[-89.8974,34.8334],[-89.8909,34.8072],[-89.8843,34.7809],[-89.8811,34.7678],[-89.8744,34.7416],[-89.864,34.7028],[-89.8564,34.6776],[-89.8522,34.6654],[-89.8395,34.6288],[-89.8302,34.6053],[-89.8209,34.5818],[-89.8118,34.5581],[-89.8074,34.5461],[-89.7943,34.51],[-89.7902,34.4977],[-89.7777,34.4609],[-89.7733,34.4489],[-89.7602,34.4128],[-89.7511,34.3891],[-89.7417,34.3657],[-89.732,34.3426],[-89.7225,34.3192],[-89.7135,34.2954],[-89.7046,34.2715],[-89.7004,34.2593],[-89.6877,34.2228],[-89.6794,34.1983],[-89.6708,34.1741],[-89.6619,34.1502],[-89.6528,34.1264],[-89.6434,34.103],[-89.6337,34.0799],[-89.6242,34.0566],[-89.615,34.0329],[-89.6057,34.0094],[-89.5964,33.9859],[-89.5873,33.9623],[-89.5778,33.9389],[-89.5681,33.9158],[-89.5587,33.8924],[-89.5496,33.8686],[-89.5407,33.8447],[-89.5321,33.8206],[-89.5238,33.796],[-89.5156,33.7715],[-89.5069,33.7473],[-89.498,33.7234],[-89.4889,33.6996],[-89.4795,33.6763],[-89.4698,33.6531],[-89.4604,33.6298],[-89.4513,33.606],[-89.4424,33.5821],[-89.4337,33.558],[-89.4255,33.5334],[-89.4172,33.5088],[-89.4086,33.4847],[-89.3997,33.4608],[-89.3906,33.437],[-89.3812,33.4136],[-89.3715,33.3905],[-89.3621,33.3671],[-89.353,33.3434],[-89.3441,33.3195],[-89.3354,33.2953],[-89.3272,33.2708],[-89.3189,33.2462],[-89.3145,33.2342],[-89.3013,33.1981],[-89.2923,33.1744],[-89.278,33.1394],[-89.2732,33.1279],[-89.2637,33.1045],[-89.2547,33.0807],[-89.2458,33.0568],[-89.2371,33.0327],[-89.2289,33.0081],[-89.2207,32.9834],[-89.2125,32.9589],[-89.2084,32.9465],[-89.1961,32.9096],[-89.192,32.8973],[-89.1797,32.8604],[-89.1714,32.8358],[-89.1674,32.8235],[-89.1552,32.7865],[-89.1469,32.7619],[-89.1387,32.7373],[-89.1305,32.7127],[-89.1224,32.688],[-89.1182,32.6757],[-89.1101,32.6511],[-89.0978,32.6142],[-89.0896,32.5895],[-89.0814,32.5649],[-89.0731,32.5404],[-89.065,32.5157],[-89.0569,32.491],[-89.0487,32.4663],[-89.0409,32.4414],[-89.0372,32.4286],[-89.0262,32.3904],[-89.0192,32.3645],[-89.016,32.3514],[-89.006,32.3121],[-88.9994,32.2859],[-88.9929,32.2596],[-88.9863,32.2333],[-88.9798,32.2071],[-88.9732,32.1808],[-88.9667,32.1545],[-88.9634,32.1414],[-88.9536,32.102],[-88.9501,32.089],[-88.9399,32.05],[-88.9327,32.0244],[-88.9252,31.9991],[-88.9175,31.974],[-88.9099,31.9488],[-88.9028,31.923],[-88.8963,31.8968],[-88.8902,31.87],[-88.8847,31.8427],[-88.8794,31.8152],[-88.8737,31.788],[-88.8678,31.7611],[-88.8617,31.7345],[-88.8552,31.7081],[-88.8487,31.6818],[-88.8421,31.6555],[-88.8356,31.6293],[-88.829,31.603],[-88.8225,31.5767],[-88.8159,31.5505],[-88.8094,31.5242],[-88.8028,31.4979],[-88.7995,31.4848],[-88.7897,31.4454],[-88.7831,31.4192],[-88.7766,31.3929],[-88.77,31.3666],[-88.7635,31.3404],[-88.7569,31.3141],[-88.7503,31.2878],[-88.7439,31.2614],[-88.7378,31.2348],[-88.7319,31.2079],[-88.7291,31.1942],[-88.7209,31.1532],[-88.7155,31.1258],[-88.7098,31.0986],[-88.704,31.0717],[-88.6978,31.045],[-88.6914,31.0186],[-88.6848,30.9924],[-88.6784,30.966],[-88.6722,30.9393],[-88.6663,30.9124],[-88.6607,30.8852],[-88.6553,30.8578],[-88.6499,30.8303],[-88.6444,30.803],[-88.6391,30.7756],[-88.6339,30.7479],[-88.6291,30.7199],[-88.6246,30.6915],[-88.6204,30.6629],[-88.616,30.6345],[-88.6111,30.6066],[-88.6062,30.5787],[-88.6012,30.5509],[-88.5963,30.5229],[-88.5919,30.4945],[-88.5877,30.4659],[-88.5853,30.4519],[-88.5783,30.4096],[-88.5734,30.3817],[-88.5684,30.3539],[-88.5635,30.3259],[-88.5591,30.2976],[-88.5549,30.2689],[-88.5525,30.2549],[-88.5456,30.2126],[-88.5406,30.1848],[-88.5357,30.1568],[-88.5314,30.1283],[-88.5281,30.0988],[-88.5259,30.0682],[-88.5242,30.037],[-88.5225,30.0059],[-88.5203,29.9753],[-88.517,29.9458],[-88.5127,29.9173],[-88.5078,29.8893],[-88.503,29.8613],[-88.4987,29.8328],[-88.4954,29.8033],[-88.4933,29.7726],[-88.4921,29.7409],[-88.4916,29.7086],[-88.4914,29.6759],[-88.4914,29.6431],[-88.4914,29.6102],[-88.4914,29.5774],[-88.4914,29.5446],[-88.4914,29.5118],[-88.4914,29.4789],[-88.4914,29.4461],[-88.4914,29.4133],[-88.4914,29.3804],[-88.4914,29.3476],[-88.4914,29.3148],[-88.4914,29.282],[-88.4914,29.2491],[-88.4914,29.2163],[-88.4914,29.1835],[-88.4914,29.1506],[-88.4914,29.1178],[-88.4914,29.085],[-88.4914,29.0521],[-88.4914,29.0193],[-88.4914,28.9865],[-88.4914,28.9537],[-88.4914,28.9208],[-88.4916,28.8881],[-88.4921,28.8558],[-88.4933,28.8242],[-88.4954,28.7935],[-88.4987,28.7639],[-88.503,28.7354],[-88.5078,28.7074],[-88.5103,28.6935],[-88.517,28.651],[-88.5203,28.6214],[-88.5224,28.5907],[-88.5235,28.559],[-88.5242,28.5269],[-88.5249,28.4947],[-88.5261,28.4631],[-88.5281,28.4323],[-88.5314,28.4028],[-88.5358,28.3743],[-88.5381,28.3602],[-88.5454,28.3183],[-88.5499,28.29],[-88.5537,28.261],[-88.557,28.2314],[-88.5603,28.2019],[-88.5641,28.1728],[-88.5685,28.1445],[-88.5734,28.1165],[-88.5782,28.0885],[-88.5827,28.0602],[-88.5865,28.0312],[-88.5898,28.0016],[-88.593,27.9721],[-88.5969,27.943],[-88.599,27.9287],[-88.6062,27.8867],[-88.6111,27.8589],[-88.616,27.8309],[-88.6204,27.8025],[-88.6246,27.7739],[-88.6291,27.7455],[-88.6339,27.7176],[-88.6389,27.6897],[-88.6439,27.6619],[-88.6488,27.6339],[-88.6532,27.6056],[-88.6574,27.5769],[-88.6619,27.5486],[-88.6642,27.5345],[-88.6724,27.4934],[-88.6784,27.4666],[-88.6848,27.4402],[-88.6914,27.4139],[-88.6978,27.3876],[-88.704,27.3609],[-88.7098,27.334],[-88.7155,27.3068],[-88.7209,27.2793],[-88.7262,27.2519],[-88.729,27.2383],[-88.7378,27.1978],[-88.7439,27.1712],[-88.7503,27.1447],[-88.7569,27.1185],[-88.7635,27.0922],[-88.77,27.066],[-88.7733,27.0528],[-88.7831,27.0134],[-88.7898,26.9873],[-88.7968,26.9614],[-88.8003,26.9486],[-88.8114,26.9105],[-88.8193,26.8855],[-88.8234,26.8732],[-88.8356,26.8362],[-88.8437,26.8115],[-88.852,26.7869],[-88.8602,26.7623],[-88.8683,26.7377],[-88.8765,26.713],[-88.8847,26.6884],[-88.893,26.6639],[-88.9011,26.6392],[-88.9092,26.6145],[-88.9175,26.5899],[-88.9257,26.5654],[-88.9339,26.5407],[-88.9421,26.5161],[-88.9508,26.492],[-88.9597,26.4681],[-88.9687,26.4443],[-88.9733,26.4325],[-88.983,26.4094],[-88.9973,26.3744],[-89.0065,26.3508],[-89.0158,26.3273],[-89.0251,26.3038],[-89.0297,26.292],[-89.0443,26.2573],[-89.0546,26.2348],[-89.0599,26.2237],[-89.0701,26.2011],[-89.0806,26.1788],[-89.0908,26.1562],[-89.1048,26.121],[-89.1141,26.0975],[-89.1234,26.074],[-89.1328,26.0505],[-89.1426,26.0275],[-89.1477,26.0162],[-89.1582,25.9939],[-89.1742,25.9607],[-89.1797,25.9497],[-89.1907,25.928],[-89.207,25.895],[-89.218,25.8732],[-89.2235,25.8623],[-89.2397,25.8293],[-89.2452,25.8184],[-89.2563,25.7966],[-89.267,25.7746],[-89.2835,25.7419],[-89.2944,25.7199],[-89.3053,25.698],[-89.3108,25.6871],[-89.3221,25.6656],[-89.3392,25.6335],[-89.3451,25.623],[-89.3574,25.6025],[-89.3763,25.5722],[-89.3889,25.552],[-89.3952,25.5419],[-89.4075,25.5214],[-89.4255,25.4901],[-89.4314,25.4796],[-89.4435,25.4589],[-89.4558,25.4384],[-89.4684,25.4182],[-89.4872,25.3878],[-89.4935,25.3777],[-89.5119,25.3469],[-89.5238,25.326],[-89.5297,25.3155],[-89.5479,25.2845],[-89.5604,25.2641],[-89.5667,25.254],[-89.5795,25.2341],[-89.5926,25.2144],[-89.6057,25.1947],[-89.6189,25.175],[-89.6385,25.1454],[-89.6451,25.1356],[-89.6647,25.106],[-89.6713,25.0962],[-89.691,25.0666],[-89.6975,25.0568],[-89.7106,25.0371],[-89.7303,25.0075],[-89.7368,24.9977],[-89.7565,24.9682],[-89.7696,24.9485],[-89.7827,24.9288],[-89.7893,24.9189],[-89.8027,24.8995],[-89.8163,24.8803],[-89.8304,24.8617],[-89.8451,24.8435],[-89.8603,24.8259],[-89.8755,24.8083],[-89.8907,24.7907],[-89.9054,24.7726],[-89.9196,24.754],[-89.9335,24.7351],[-89.9474,24.7162],[-89.9615,24.6975],[-89.9762,24.6794],[-89.9917,24.662],[-90.0074,24.645],[-90.0237,24.6284],[-90.0399,24.6119],[-90.0564,24.5956],[-90.0727,24.5791],[-90.0892,24.5628],[-90.1055,24.5462],[-90.122,24.5299],[-90.1383,24.5134],[-90.1548,24.4971],[-90.171,24.4806],[-90.1876,24.4643],[-90.2038,24.4477],[-90.2203,24.4314],[-90.2366,24.4149],[-90.2531,24.3986],[-90.2693,24.3821],[-90.2859,24.3658],[-90.3021,24.3492],[-90.3186,24.333],[-90.3349,24.3164],[-90.3514,24.3001],[-90.3677,24.2836],[-90.3842,24.2673],[-90.4004,24.2508],[-90.417,24.2345],[-90.4332,24.2179],[-90.4497,24.2016],[-90.466,24.1851],[-90.4825,24.1688],[-90.4988,24.1523],[-90.5153,24.136],[-90.5315,24.1194],[-90.548,24.1032],[-90.5731,24.079],[-90.5816,24.0711],[-90.5989,24.0556],[-90.608,24.0483],[-90.6263,24.0338],[-90.6451,24.0198],[-90.6639,24.0058],[-90.6827,23.9918],[-90.7011,23.9774],[-90.7274,23.9545],[-90.7527,23.9306],[-90.7609,23.9225],[-90.7856,23.8979],[-90.7937,23.8896],[-90.8102,23.8734],[-90.8353,23.8492],[-90.8524,23.8336],[-90.8792,23.8111],[-90.8978,23.7969],[-90.9167,23.783],[-90.9261,23.776],[-90.9542,23.7549],[-90.9811,23.7326],[-90.9898,23.725],[-91.0074,23.7097],[-91.025,23.6945],[-91.0431,23.6798],[-91.0617,23.6656],[-91.0712,23.6588],[-91.0905,23.6452],[-91.11,23.632],[-91.1395,23.6123],[-91.1494,23.6057],[-91.169,23.5926],[-91.1985,23.5729],[-91.2084,23.5663],[-91.2282,23.5533],[-91.2482,23.5406],[-91.2686,23.5281],[-91.2893,23.516],[-91.3105,23.5045],[-91.332,23.4932],[-91.3535,23.4819],[-91.375,23.4706],[-91.3962,23.459],[-91.4171,23.4471],[-91.4378,23.435],[-91.4586,23.4231],[-91.4799,23.4115],[-91.5018,23.4006],[-91.5242,23.3902],[-91.547,23.3803],[-91.5701,23.3705],[-91.5929,23.3606],[-91.6153,23.3502],[-91.6376,23.3397],[-91.6596,23.3289],[-91.6814,23.3179],[-91.7032,23.307],[-91.736,23.2906],[-91.7469,23.285],[-91.7688,23.2741],[-91.7907,23.2632],[-91.8125,23.2522],[-91.8344,23.2413],[-91.8562,23.2304],[-91.878,23.2194],[-91.8999,23.2085],[-91.9218,23.1976],[-91.9434,23.1864],[-91.9649,23.1751],[-91.9966,23.1577],[-92.0069,23.1515],[-92.027,23.1389],[-92.0467,23.1258],[-92.075,23.1049],[-92.1007,23.0814],[-92.1089,23.0731],[-92.1309,23.0459],[-92.1437,23.0259],[-92.1553,23.0047],[-92.1655,22.9824],[-92.1737,22.9588],[-92.1796,22.9343],[-92.1829,22.9092],[-92.1829,22.884],[-92.1795,22.8591],[-92.1732,22.8349],[-92.1643,22.812],[-92.1532,22.7906],[-92.1404,22.7705],[-92.1264,22.7518],[-92.1111,22.7343],[-92.0948,22.7179],[-92.0778,22.7025],[-92.0506,22.6818],[-92.032,22.6697],[-92.0028,22.655],[-91.993,22.6508],[-91.9602,22.642]]]},"properties":{"objectid":561,"stormname":"Isaias","stormtype":"TS","basin":"AL","advdate":"1000 PM CDT Wed Oct 07 2026","advisnum":"6","fcstprd":120,"stormnum":9,"idp_source":"al092026-006_5day_pgn","idp_filedate":1791430091000,"idp_ingestdate":1791430161000,"st_area(shape)":35.113511374105819,"st_perimeter(shape)":35.069402707561572,"binnumber":"AT4"}}]}