{"type":"FeatureCollection","features":[{"type":"Feature","id":4880,"geometry":{"type":"LineString","coordinates":[[-96.5,22.0],[-96.3,22.2],[-96.1,22.3],[-96.0,22.2],[-96.0,22.0],[-95.7,21.9]]},"properties":{"objectid":4880,"stormtype":"DB","stormnum":9,"ss":0,"idp_source":"AL092026_lin","idp_filedate":1791430091000,"idp_ingestdate":1791430190000,"st_length(shape)":1.1640986314242154,"binnumber":"AT4"}},{"type":"Feature","id":4881,"geometry":{"type":"LineString","coordinates":[[-95.7,21.9],[-95.3,21.7],[-94.6,21.9]]},"properties":{"objectid":4881,"stormtype":"TD","stormnum":9,"ss":0,"idp_source":"AL092026_lin","idp_filedate":1791430091000,"idp_ingestdate":1791430190000,"st_length(shape)":1.1752245852623704,"binnumber":"AT4"}},{"type":"Feature","id":4882,"geometry":{"type":"LineString","coordinates":[[-94.6,21.9],[-93.9,22.2],[-93.3,22.5],[-92.3,22.7]]},"properties":{"objectid":4882,"stormtype":"TD","stormnum":9,"ss":0,"idp_source":"AL092026_lin","idp_filedate":1791430091000,"idp_ingestdate":1791430190000,"st_length(shape)":2.4522016062554526,"binnumber":"AT4"}}]}